{"type":"FeatureCollection","features":[{"type":"Feature","id":7159301,"geometry":{"type":"Polygon","coordinates":[[[-74.368578669847849,41.28421633074953,0],[-74.368518817000961,41.28435006889147,0],[-74.368634744273436,41.284379534860847,0],[-74.368694597642161,41.284245968709321,0],[-74.368578669847849,41.28421633074953,0]]]},"properties":{"COUNTYNAME":"Orange","MUNINAME":"Warwick","NYSGEO_SOURCE":"NYSERDA","SOURCE":"Orange County GIS Division","SOURCEDATE":"2013","SOURCEID":" ","OBJECTID":7159301}},{"type":"Feature","id":7158313,"geometry":{"type":"Polygon","coordinates":[[[-74.367850155913544,41.286959051506464,0],[-74.367645050530982,41.287051793563514,0],[-74.367699950267678,41.287120819506555,0],[-74.367904827706155,41.2870280761014,0],[-74.367850155913544,41.286959051506464,0]]]},"properties":{"COUNTYNAME":"Orange","MUNINAME":"Warwick","NYSGEO_SOURCE":"NYSERDA","SOURCE":"Orange County GIS Division","SOURCEDATE":"2013","SOURCEID":" ","OBJECTID":7158313}},{"type":"Feature","id":7248323,"geometry":{"type":"Polygon","coordinates":[[[-74.365758108843636,41.28271312628771,0],[-74.365838864436355,41.282787603859227,0],[-74.365909526898477,41.282742089728366,0],[-74.365834275964332,41.282662095572526,0],[-74.365758108843636,41.28271312628771,0]]]},"properties":{"COUNTYNAME":"Orange","MUNINAME":"Warwick","NYSGEO_SOURCE":"NYS Geospatial Services","SOURCE":"NYS ITS Geospatial Services edited by digitizing to 2021 Orthoimagery and/or 2022 LIDAR","SOURCEDATE":"2021-22","SOURCEID":null,"OBJECTID":7248323}},{"type":"Feature","id":7229577,"geometry":{"type":"Polygon","coordinates":[[[-74.370102256750329,41.283193746056263,0],[-74.370020251957754,41.283124807990056,0],[-74.369893737522688,41.283210438419381,0],[-74.369975742287068,41.283279376574519,0],[-74.370102256750329,41.283193746056263,0]]]},"properties":{"COUNTYNAME":"Orange","MUNINAME":"Warwick","NYSGEO_SOURCE":"NYSERDA","SOURCE":"Orange County GIS Division","SOURCEDATE":"2013","SOURCEID":" ","OBJECTID":7229577}},{"type":"Feature","id":7159540,"geometry":{"type":"Polygon","coordinates":[[[-74.36948098470998,41.28358434647847,0],[-74.369382412969415,41.283633297693342,0],[-74.369484972602436,41.283751267035655,0],[-74.369583543984419,41.283702487779664,0],[-74.36948098470998,41.28358434647847,0]]]},"properties":{"COUNTYNAME":"Orange","MUNINAME":"Warwick","NYSGEO_SOURCE":"NYSERDA","SOURCE":"Orange County GIS Division","SOURCEDATE":"2013","SOURCEID":" ","OBJECTID":7159540}},{"type":"Feature","id":7159311,"geometry":{"type":"Polygon","coordinates":[[[-74.368815363339451,41.285379862714187,0],[-74.368781338537801,41.28544861314699,0],[-74.368768836253011,41.285445168500274,0],[-74.368737324558722,41.285508776679634,0],[-74.368864386357245,41.285544432325054,0],[-74.36892992146835,41.285412071835538,0],[-74.368815363339451,41.285379862714187,0]]]},"properties":{"COUNTYNAME":"Orange","MUNINAME":"Warwick","NYSGEO_SOURCE":"NYSERDA","SOURCE":"Orange County GIS Division","SOURCEDATE":"2013","SOURCEID":" ","OBJECTID":7159311}},{"type":"Feature","id":7159348,"geometry":{"type":"Polygon","coordinates":[[[-74.36841223340403,41.284537791529111,0],[-74.368350794811391,41.284667239504834,0],[-74.368468310796956,41.284698938364755,0],[-74.368529747994529,41.284569490319001,0],[-74.36841223340403,41.284537791529111,0]]]},"properties":{"COUNTYNAME":"Orange","MUNINAME":"Warwick","NYSGEO_SOURCE":"NYSERDA","SOURCE":"Orange County GIS Division","SOURCEDATE":"2013","SOURCEID":" ","OBJECTID":7159348}},{"type":"Feature","id":7159294,"geometry":{"type":"Polygon","coordinates":[[[-74.368259685437664,41.284849661176736,0],[-74.368194825910379,41.284984079665314,0],[-74.368305066825144,41.285014227267574,0],[-74.36836992615757,41.284879808716212,0],[-74.368259685437664,41.284849661176736,0]]]},"properties":{"COUNTYNAME":"Orange","MUNINAME":"Warwick","NYSGEO_SOURCE":"NYSERDA","SOURCE":"Orange County GIS Division","SOURCEDATE":"2013","SOURCEID":" ","OBJECTID":7159294}},{"type":"Feature","id":7159312,"geometry":{"type":"Polygon","coordinates":[[[-74.368056873587491,41.285162159067923,0],[-74.368017595242023,41.285241884269567,0],[-74.368029642923929,41.285245157157107,0],[-74.367997673319636,41.28530962285874,0],[-74.368115187782635,41.28534269484561,0],[-74.368148071318217,41.28527582816546,0],[-74.368163754452411,41.285280306408765,0],[-74.36820211741454,41.285202982996871,0],[-74.368056873587491,41.285162159067923,0]]]},"properties":{"COUNTYNAME":"Orange","MUNINAME":"Warwick","NYSGEO_SOURCE":"NYSERDA","SOURCE":"Orange County GIS Division","SOURCEDATE":"2013","SOURCEID":" ","OBJECTID":7159312}},{"type":"Feature","id":7206180,"geometry":{"type":"Polygon","coordinates":[[[-74.367524483581008,41.285941058626136,0],[-74.367489400987409,41.285969667157829,0],[-74.367523694378988,41.285993723330378,0],[-74.367558775776629,41.285965114781789,0],[-74.367524483581008,41.285941058626136,0]]]},"properties":{"COUNTYNAME":"Orange","MUNINAME":"Warwick","NYSGEO_SOURCE":"NYSERDA","SOURCE":"Orange County GIS Division","SOURCEDATE":"2013","SOURCEID":" ","OBJECTID":7206180}},{"type":"Feature","id":7159284,"geometry":{"type":"Polygon","coordinates":[[[-74.366502105613094,41.285533310790662,0],[-74.366483769701532,41.285602594556522,0],[-74.366497184380492,41.285604668993173,0],[-74.366480224493174,41.285668979961294,0],[-74.36659026649312,41.285685403945571,0],[-74.366625107541651,41.285551637328638,0],[-74.366502105613094,41.285533310790662,0]]]},"properties":{"COUNTYNAME":"Orange","MUNINAME":"Warwick","NYSGEO_SOURCE":"NYSERDA","SOURCE":"Orange County GIS Division","SOURCEDATE":"2013","SOURCEID":" ","OBJECTID":7159284}},{"type":"Feature","id":7229576,"geometry":{"type":"Polygon","coordinates":[[[-74.369765723547346,41.282125720933202,0],[-74.369693139107383,41.282043324407283,0],[-74.369555705903295,41.282112212391674,0],[-74.369628291429947,41.282194609909865,0],[-74.369765723547346,41.282125720933202,0]]]},"properties":{"COUNTYNAME":"Orange","MUNINAME":"Warwick","NYSGEO_SOURCE":"NYSERDA","SOURCE":"Orange County GIS Division","SOURCEDATE":"2013","SOURCEID":" ","OBJECTID":7229576}},{"type":"Feature","id":7159386,"geometry":{"type":"Polygon","coordinates":[[[-74.369243217904909,41.28466465356054,0],[-74.369206932029911,41.284728084390174,0],[-74.369220795189776,41.284732560624285,0],[-74.369189299559991,41.284787763018066,0],[-74.36928634898058,41.284819094874806,0],[-74.369353903441066,41.284700461247304,0],[-74.369243217904909,41.28466465356054,0]]]},"properties":{"COUNTYNAME":"Orange","MUNINAME":"Warwick","NYSGEO_SOURCE":"NYSERDA","SOURCE":"Orange County GIS Division","SOURCEDATE":"2013","SOURCEID":" ","OBJECTID":7159386}},{"type":"Feature","id":7159258,"geometry":{"type":"Polygon","coordinates":[[[-74.368650679738408,41.285732374888227,0],[-74.368593567755525,41.285859769513884,0],[-74.368705178686483,41.285888202870048,0],[-74.368762519297988,41.285760980589657,0],[-74.368650679738408,41.285732374888227,0]]]},"properties":{"COUNTYNAME":"Orange","MUNINAME":"Warwick","NYSGEO_SOURCE":"NYSERDA","SOURCE":"Orange County GIS Division","SOURCEDATE":"2013","SOURCEID":" ","OBJECTID":7159258}},{"type":"Feature","id":7159429,"geometry":{"type":"Polygon","coordinates":[[[-74.366823731403272,41.282492665058122,0],[-74.366688168470603,41.282503315041502,0],[-74.366695788212439,41.282558904898828,0],[-74.366651206335106,41.282562456391808,0],[-74.366647844015532,41.282538950250164,0],[-74.366601214957043,41.282542669714708,0],[-74.366611297159636,41.282617133500459,0],[-74.366668160640558,41.282612739810148,0],[-74.366666144030418,41.282597640776267,0],[-74.366695031785852,41.282595273030985,0],[-74.366698393928885,41.282619293511189,0],[-74.366839415224774,41.282608305121379,0],[-74.366823731403272,41.282492665058122,0]]]},"properties":{"COUNTYNAME":"Orange","MUNINAME":"Warwick","NYSGEO_SOURCE":"NYSERDA","SOURCE":"Orange County GIS Division","SOURCEDATE":"2013","SOURCEID":" ","OBJECTID":7159429}},{"type":"Feature","id":7159158,"geometry":{"type":"Polygon","coordinates":[[[-74.366558388570922,41.286261422656601,0],[-74.36649317635522,41.286343517768472,0],[-74.36657929442643,41.286382559100694,0],[-74.366567665658209,41.286396956107346,0],[-74.366658555076469,41.286438061180057,0],[-74.366735394714226,41.286341568945652,0],[-74.366558388570922,41.286261422656601,0]]]},"properties":{"COUNTYNAME":"Orange","MUNINAME":"Warwick","NYSGEO_SOURCE":"NYSERDA","SOURCE":"Orange County GIS Division","SOURCEDATE":"2013","SOURCEID":" ","OBJECTID":7159158}},{"type":"Feature","id":7159011,"geometry":{"type":"Polygon","coordinates":[[[-74.366583466903947,41.286902180609914,0],[-74.36655532430818,41.286984490518357,0],[-74.366732879886683,41.287019005826409,0],[-74.36676124917436,41.286936696220899,0],[-74.366583466903947,41.286902180609914,0]]]},"properties":{"COUNTYNAME":"Orange","MUNINAME":"Warwick","NYSGEO_SOURCE":"NYSERDA","SOURCE":"Orange County GIS Division","SOURCEDATE":"2013","SOURCEID":" ","OBJECTID":7159011}},{"type":"Feature","id":7206345,"geometry":{"type":"Polygon","coordinates":[[[-74.366105926270691,41.283641370239451,0],[-74.366017633250493,41.283667171270878,0],[-74.366056141994918,41.283742011423797,0],[-74.366144663654381,41.283716038673894,0],[-74.366105926270691,41.283641370239451,0]]]},"properties":{"COUNTYNAME":"Orange","MUNINAME":"Warwick","NYSGEO_SOURCE":"NYSERDA","SOURCE":"Orange County GIS Division","SOURCEDATE":"2013","SOURCEID":" ","OBJECTID":7206345}},{"type":"Feature","id":7159248,"geometry":{"type":"Polygon","coordinates":[[[-74.36611825706521,41.284618690468115,0],[-74.366030695480362,41.284619618004406,0],[-74.366032140002787,41.284691839964268,0],[-74.366061933066902,41.284691532027175,0],[-74.366063779651796,41.284789830851608,0],[-74.366173172574747,41.2847887568633,0],[-74.366171111651084,41.284684454114412,0],[-74.36611948585815,41.284685079640127,0],[-74.36611825706521,41.284618690468115,0]]]},"properties":{"COUNTYNAME":"Orange","MUNINAME":"Warwick","NYSGEO_SOURCE":"NYSERDA","SOURCE":"Orange County GIS Division","SOURCEDATE":"2013","SOURCEID":" ","OBJECTID":7159248}},{"type":"Feature","id":7157414,"geometry":{"type":"Polygon","coordinates":[[[-74.365548713618793,41.282768402254291,0],[-74.365518175050624,41.282800274422812,0],[-74.365552022465351,41.282818842128947,0],[-74.365488436532488,41.282885156046447,0],[-74.365571805501304,41.282930713594993,0],[-74.365677553639102,41.28282070398609,0],[-74.365596456291158,41.282776349852988,0],[-74.365585060661274,41.282788173647077,0],[-74.365548713618793,41.282768402254291,0]]]},"properties":{"COUNTYNAME":"Orange","MUNINAME":"Warwick","NYSGEO_SOURCE":"NYSERDA","SOURCE":"Orange County GIS Division","SOURCEDATE":"2013","SOURCEID":" ","OBJECTID":7157414}},{"type":"Feature","id":7159186,"geometry":{"type":"Polygon","coordinates":[[[-74.365768387952727,41.285660946581011,0],[-74.365733549707926,41.285792140343773,0],[-74.365847000922727,41.285809083750308,0],[-74.365881612046664,41.285677890503727,0],[-74.365768387952727,41.285660946581011,0]]]},"properties":{"COUNTYNAME":"Orange","MUNINAME":"Warwick","NYSGEO_SOURCE":"NYSERDA","SOURCE":"Orange County GIS Division","SOURCEDATE":"2013","SOURCEID":" ","OBJECTID":7159186}},{"type":"Feature","id":7206411,"geometry":{"type":"Polygon","coordinates":[[[-74.369714893295352,41.283295726365985,0],[-74.369683231321247,41.283321423197513,0],[-74.369730468840373,41.283354413195688,0],[-74.369761903916782,41.283328716910695,0],[-74.369714893295352,41.283295726365985,0]]]},"properties":{"COUNTYNAME":"Orange","MUNINAME":"Warwick","NYSGEO_SOURCE":"NYSERDA","SOURCE":"Orange County GIS Division","SOURCEDATE":"2013","SOURCEID":" ","OBJECTID":7206411}},{"type":"Feature","id":7159351,"geometry":{"type":"Polygon","coordinates":[[[-74.369466816391522,41.284302942003762,0],[-74.369428463122972,41.284376492570395,0],[-74.369440282172036,41.284379937006548,0],[-74.369401242845356,41.284455030431239,0],[-74.369499205385793,41.284484133196244,0],[-74.369514272086391,41.28445550179601,0],[-74.369523590013841,41.284458256946245,0],[-74.369585916882158,41.284338245186937,0],[-74.369466816391522,41.284302942003762,0]]]},"properties":{"COUNTYNAME":"Orange","MUNINAME":"Warwick","NYSGEO_SOURCE":"NYSERDA","SOURCE":"Orange County GIS Division","SOURCEDATE":"2013","SOURCEID":" ","OBJECTID":7159351}},{"type":"Feature","id":7159243,"geometry":{"type":"Polygon","coordinates":[[[-74.369020493458081,41.285043348102029,0],[-74.368959116994063,41.285143118992309,0],[-74.369066614912001,41.285180638962672,0],[-74.36912776435608,41.285080867672164,0],[-74.369020493458081,41.285043348102029,0]]]},"properties":{"COUNTYNAME":"Orange","MUNINAME":"Warwick","NYSGEO_SOURCE":"NYSERDA","SOURCE":"Orange County GIS Division","SOURCEDATE":"2013","SOURCEID":" ","OBJECTID":7159243}},{"type":"Feature","id":7206366,"geometry":{"type":"Polygon","coordinates":[[[-74.36859617194564,41.283768097038497,0],[-74.368576997386199,41.283803757036516,0],[-74.368621090303392,41.283817187982507,0],[-74.368640264842981,41.283781527977069,0],[-74.36859617194564,41.283768097038497,0]]]},"properties":{"COUNTYNAME":"Orange","MUNINAME":"Warwick","NYSGEO_SOURCE":"NYSERDA","SOURCE":"Orange County GIS Division","SOURCEDATE":"2013","SOURCEID":" ","OBJECTID":7206366}},{"type":"Feature","id":7159162,"geometry":{"type":"Polygon","coordinates":[[[-74.367794823466028,41.285752839190863,0],[-74.36774156940082,41.285882467774066,0],[-74.367861823283107,41.28591056838934,0],[-74.367915075940459,41.285780939743056,0],[-74.367794823466028,41.285752839190863,0]]]},"properties":{"COUNTYNAME":"Orange","MUNINAME":"Warwick","NYSGEO_SOURCE":"NYSERDA","SOURCE":"Orange County GIS Division","SOURCEDATE":"2013","SOURCEID":" ","OBJECTID":7159162}},{"type":"Feature","id":7159400,"geometry":{"type":"Polygon","coordinates":[[[-74.367507664788036,41.283237282179435,0],[-74.367362309611835,41.283253240549733,0],[-74.367367034153048,41.283278292673359,0],[-74.367254436787945,41.283290685508128,0],[-74.367257588337552,41.283306986093166,0],[-74.367226878821739,41.283310381655149,0],[-74.367232729180856,41.28334126706892,0],[-74.367521389828084,41.283309692314688,0],[-74.367507664788036,41.283237282179435,0]]]},"properties":{"COUNTYNAME":"Orange","MUNINAME":"Warwick","NYSGEO_SOURCE":"NYSERDA","SOURCE":"Orange County GIS Division","SOURCEDATE":"2013","SOURCEID":" ","OBJECTID":7159400}},{"type":"Feature","id":7158384,"geometry":{"type":"Polygon","coordinates":[[[-74.367180820279458,41.286958109685358,0],[-74.36718078774382,41.286974578318173,0],[-74.367087995623237,41.28697429878985,0],[-74.367087593073762,41.287060072574839,0],[-74.367271813791149,41.287060627666449,0],[-74.367272248603342,41.286958386146836,0],[-74.367180820279458,41.286958109685358,0]]]},"properties":{"COUNTYNAME":"Orange","MUNINAME":"Warwick","NYSGEO_SOURCE":"NYSERDA","SOURCE":"Orange County GIS Division","SOURCEDATE":"2013","SOURCEID":" ","OBJECTID":7158384}},{"type":"Feature","id":7206449,"geometry":{"type":"Polygon","coordinates":[[[-74.366967698131518,41.283271656660702,0],[-74.366958461299745,41.28334060773706,0],[-74.367011668901966,41.283344614195485,0],[-74.367020905678402,41.283275663114516,0],[-74.366967698131518,41.283271656660702,0]]]},"properties":{"COUNTYNAME":"Orange","MUNINAME":"Warwick","NYSGEO_SOURCE":"NYSERDA","SOURCE":"Orange County GIS Division","SOURCEDATE":"2013","SOURCEID":" ","OBJECTID":7206449}},{"type":"Feature","id":7206408,"geometry":{"type":"Polygon","coordinates":[[[-74.366959607789113,41.283559674679935,0],[-74.366946654444703,41.283666705283231,0],[-74.367031698513372,41.283672464051371,0],[-74.367044651720178,41.283565433437637,0],[-74.366959607789113,41.283559674679935,0]]]},"properties":{"COUNTYNAME":"Orange","MUNINAME":"Warwick","NYSGEO_SOURCE":"NYSERDA","SOURCE":"Orange County GIS Division","SOURCEDATE":"2013","SOURCEID":" ","OBJECTID":7206408}},{"type":"Feature","id":7159387,"geometry":{"type":"Polygon","coordinates":[[[-74.366820185810511,41.284572156943163,0],[-74.366705781136602,41.284576827783198,0],[-74.366713737324858,41.28469040127608,0],[-74.366923442805671,41.284681894817368,0],[-74.366918352651808,41.284611897542803,0],[-74.366823281423905,41.284615733511927,0],[-74.366820185810511,41.284572156943163,0]]]},"properties":{"COUNTYNAME":"Orange","MUNINAME":"Warwick","NYSGEO_SOURCE":"NYSERDA","SOURCE":"Orange County GIS Division","SOURCEDATE":"2013","SOURCEID":" ","OBJECTID":7159387}},{"type":"Feature","id":7159466,"geometry":{"type":"Polygon","coordinates":[[[-74.366175906943838,41.283784864860323,0],[-74.366139023313806,41.283916227684223,0],[-74.366255652738531,41.283934890647338,0],[-74.3662925373402,41.28380352779147,0],[-74.366175906943838,41.283784864860323,0]]]},"properties":{"COUNTYNAME":"Orange","MUNINAME":"Warwick","NYSGEO_SOURCE":"NYSERDA","SOURCE":"Orange County GIS Division","SOURCEDATE":"2013","SOURCEID":" ","OBJECTID":7159466}},{"type":"Feature","id":7206297,"geometry":{"type":"Polygon","coordinates":[[[-74.365904014573374,41.283732913505567,0],[-74.365896647374512,41.283776991853166,0],[-74.365943941600392,41.28378150759734,0],[-74.365951309962114,41.283737429253115,0],[-74.365904014573374,41.283732913505567,0]]]},"properties":{"COUNTYNAME":"Orange","MUNINAME":"Warwick","NYSGEO_SOURCE":"NYSERDA","SOURCE":"Orange County GIS Division","SOURCEDATE":"2013","SOURCEID":" ","OBJECTID":7206297}},{"type":"Feature","id":7159263,"geometry":{"type":"Polygon","coordinates":[[[-74.365861665039276,41.285311957282126,0],[-74.365841756844389,41.285371631857721,0],[-74.365791514636314,41.285362138377543,0],[-74.365771149298027,41.285423013853261,0],[-74.365830029181112,41.28543423306423,0],[-74.365824078779667,41.28545258143896,0],[-74.36593411169433,41.285473466623415,0],[-74.365980336556007,41.285334567245798,0],[-74.365861665039276,41.285311957282126,0]]]},"properties":{"COUNTYNAME":"Orange","MUNINAME":"Warwick","NYSGEO_SOURCE":"NYSERDA","SOURCE":"Orange County GIS Division","SOURCEDATE":"2013","SOURCEID":" ","OBJECTID":7159263}},{"type":"Feature","id":7206310,"geometry":{"type":"Polygon","coordinates":[[[-74.365832850508795,41.283612918755161,0],[-74.365832743058661,41.283665583619175,0],[-74.365933036188679,41.283665700090509,0],[-74.365933143549441,41.283613036126539,0],[-74.365832850508795,41.283612918755161,0]]]},"properties":{"COUNTYNAME":"Orange","MUNINAME":"Warwick","NYSGEO_SOURCE":"NYSERDA","SOURCE":"Orange County GIS Division","SOURCEDATE":"2013","SOURCEID":" ","OBJECTID":7206310}},{"type":"Feature","id":7159153,"geometry":{"type":"Polygon","coordinates":[[[-74.365697363186769,41.286469708795629,0],[-74.365606314679866,41.286506485528186,0],[-74.365728774993727,41.286678690698935,0],[-74.36583735078392,41.28663455834041,0],[-74.365759564733736,41.286525362505365,0],[-74.365742038107442,41.286532546881155,0],[-74.365697363186769,41.286469708795629,0]]]},"properties":{"COUNTYNAME":"Orange","MUNINAME":"Warwick","NYSGEO_SOURCE":"NYSERDA","SOURCE":"Orange County GIS Division","SOURCEDATE":"2013","SOURCEID":" ","OBJECTID":7159153}},{"type":"Feature","id":7159427,"geometry":{"type":"Polygon","coordinates":[[[-74.365557889657495,41.283284599925771,0],[-74.365462582445744,41.283292894099304,0],[-74.365475597873115,41.28337816809595,0],[-74.36557113137242,41.283369702210749,0],[-74.365557889657495,41.283284599925771,0]]]},"properties":{"COUNTYNAME":"Orange","MUNINAME":"Warwick","NYSGEO_SOURCE":"NYSERDA","SOURCE":"Orange County GIS Division","SOURCEDATE":"2013","SOURCEID":" ","OBJECTID":7159427}},{"type":"Feature","id":7157343,"geometry":{"type":"Polygon","coordinates":[[[-74.369927768603631,41.282718195759664,0],[-74.369850325912154,41.282779007298238,0],[-74.369980222980075,41.282872990553216,0],[-74.370057666115969,41.282812007783868,0],[-74.369927768603631,41.282718195759664,0]]]},"properties":{"COUNTYNAME":"Orange","MUNINAME":"Warwick","NYSGEO_SOURCE":"NYSERDA","SOURCE":"Orange County GIS Division","SOURCEDATE":"2013","SOURCEID":" ","OBJECTID":7157343}},{"type":"Feature","id":7206430,"geometry":{"type":"Polygon","coordinates":[[[-74.369178312875533,41.282204419897276,0],[-74.369152587929506,41.282331849952534,0],[-74.369568666374505,41.282379669616432,0],[-74.369562005717796,41.282412770763557,0],[-74.369625213241378,41.282420047434819,0],[-74.369652775563182,41.282283012487966,0],[-74.369560920223563,41.28227244336135,0],[-74.369565742597416,41.28224894699364,0],[-74.369178312875533,41.282204419897276,0]]]},"properties":{"COUNTYNAME":"Orange","MUNINAME":"Warwick","NYSGEO_SOURCE":"NYSERDA","SOURCE":"Orange County GIS Division","SOURCEDATE":"2013","SOURCEID":" ","OBJECTID":7206430}},{"type":"Feature","id":7206315,"geometry":{"type":"Polygon","coordinates":[[[-74.369333331425665,41.282472037552274,0],[-74.369198925835732,41.282472914443282,0],[-74.369200319858933,41.282572070119897,0],[-74.369334499213181,41.282571022642998,0],[-74.369333331425665,41.282472037552274,0]]]},"properties":{"COUNTYNAME":"Orange","MUNINAME":"Warwick","NYSGEO_SOURCE":"NYSERDA","SOURCE":"Orange County GIS Division","SOURCEDATE":"2013","SOURCEID":" ","OBJECTID":7206315}},{"type":"Feature","id":7159159,"geometry":{"type":"Polygon","coordinates":[[[-74.368458920390921,41.286203912205977,0],[-74.368390631951542,41.28634656123068,0],[-74.368564748406087,41.286394107032237,0],[-74.368593067689957,41.286335297828792,0],[-74.368536014378719,41.286319793367817,0],[-74.368576210905445,41.286236124956631,0],[-74.368458920390921,41.286203912205977,0]]]},"properties":{"COUNTYNAME":"Orange","MUNINAME":"Warwick","NYSGEO_SOURCE":"NYSERDA","SOURCE":"Orange County GIS Division","SOURCEDATE":"2013","SOURCEID":" ","OBJECTID":7159159}},{"type":"Feature","id":7159149,"geometry":{"type":"Polygon","coordinates":[[[-74.368198137079588,41.286729061727897,0],[-74.36806149818662,41.286818281734057,0],[-74.36813505719762,41.286882181820495,0],[-74.368271697320068,41.286792961734825,0],[-74.368198137079588,41.286729061727897,0]]]},"properties":{"COUNTYNAME":"Orange","MUNINAME":"Warwick","NYSGEO_SOURCE":"NYSERDA","SOURCE":"Orange County GIS Division","SOURCEDATE":"2013","SOURCEID":" ","OBJECTID":7159149}},{"type":"Feature","id":7159229,"geometry":{"type":"Polygon","coordinates":[[[-74.367603898355057,41.286258169411767,0],[-74.367411684768655,41.286274417171285,0],[-74.367424025013335,41.286357460490571,0],[-74.367494769353627,41.286351365451218,0],[-74.367496565955264,41.286362689918867,0],[-74.367618034736097,41.286352365126888,0],[-74.367603898355057,41.286258169411767,0]]]},"properties":{"COUNTYNAME":"Orange","MUNINAME":"Warwick","NYSGEO_SOURCE":"NYSERDA","SOURCE":"Orange County GIS Division","SOURCEDATE":"2013","SOURCEID":" ","OBJECTID":7159229}},{"type":"Feature","id":7241957,"geometry":{"type":"Polygon","coordinates":[[[-74.367444599427216,41.284871354588617,0],[-74.36749760016329,41.284879354611419,0],[-74.367516599804347,41.284808354745827,0],[-74.367464599849143,41.284800354826039,0],[-74.367444599427216,41.284871354588617,0]]]},"properties":{"COUNTYNAME":"Orange","MUNINAME":"Warwick","NYSGEO_SOURCE":"Microsoft","SOURCE":"NYSGPO added Microsoft Building Footprints\u00A0Release 1","SOURCEDATE":" ","SOURCEID":" ","OBJECTID":7241957}},{"type":"Feature","id":7159342,"geometry":{"type":"Polygon","coordinates":[[[-74.366699462408377,41.284888350303461,0],[-74.366678614280389,41.284962949256361,0],[-74.36666611041754,41.284961047395342,0],[-74.366645951267898,41.285032559582532,0],[-74.366783272195875,41.285054676811619,0],[-74.366824733449022,41.28490839427284,0],[-74.366699462408377,41.284888350303461,0]]]},"properties":{"COUNTYNAME":"Orange","MUNINAME":"Warwick","NYSGEO_SOURCE":"NYSERDA","SOURCE":"Orange County GIS Division","SOURCEDATE":"2013","SOURCEID":" ","OBJECTID":7159342}},{"type":"Feature","id":7157430,"geometry":{"type":"Polygon","coordinates":[[[-74.365767350044379,41.286055847408605,0],[-74.365652031602849,41.286061373299404,0],[-74.365668230661186,41.286258328970291,0],[-74.365783548985533,41.286252974210065,0],[-74.365767350044379,41.286055847408605,0]]]},"properties":{"COUNTYNAME":"Orange","MUNINAME":"Warwick","NYSGEO_SOURCE":"NYSERDA","SOURCE":"Orange County GIS Division","SOURCEDATE":"2013","SOURCEID":" ","OBJECTID":7157430}},{"type":"Feature","id":7248308,"geometry":{"type":"Polygon","coordinates":[[[-74.365622148707075,41.286302193946533,0],[-74.365620191165988,41.286233048914376,0],[-74.365518383691537,41.286236726876716,0],[-74.365514467953034,41.286305136036653,0],[-74.365622148707075,41.286302193946533,0]]]},"properties":{"COUNTYNAME":"Orange","MUNINAME":"Warwick","NYSGEO_SOURCE":"NYS Geospatial Services","SOURCE":"NYS ITS Geospatial Services edited by digitizing to 2021 Orthoimagery and/or 2022 LIDAR","SOURCEDATE":"2021-22","SOURCEID":null,"OBJECTID":7248308}},{"type":"Feature","id":7206410,"geometry":{"type":"Polygon","coordinates":[[[-74.370266832789568,41.283301324024848,0],[-74.370213782001045,41.283332658133894,0],[-74.370251460660668,41.283369239249538,0],[-74.370304739524784,41.283337907271651,0],[-74.370266832789568,41.283301324024848,0]]]},"properties":{"COUNTYNAME":"Orange","MUNINAME":"Warwick","NYSGEO_SOURCE":"NYSERDA","SOURCE":"Orange County GIS Division","SOURCEDATE":"2013","SOURCEID":" ","OBJECTID":7206410}},{"type":"Feature","id":7159470,"geometry":{"type":"Polygon","coordinates":[[[-74.369043949101084,41.283321726935789,0],[-74.369007631917611,41.283401111127326,0],[-74.36922220632853,41.283456593712202,0],[-74.369258296406173,41.283377208209046,0],[-74.369043949101084,41.283321726935789,0]]]},"properties":{"COUNTYNAME":"Orange","MUNINAME":"Warwick","NYSGEO_SOURCE":"NYSERDA","SOURCE":"Orange County GIS Division","SOURCEDATE":"2013","SOURCEID":" ","OBJECTID":7159470}},{"type":"Feature","id":7159287,"geometry":{"type":"Polygon","coordinates":[[[-74.367933473703985,41.285454505477027,0],[-74.367880225500286,41.285582591141512,0],[-74.367987291711742,41.28560793130822,0],[-74.368040540913356,41.285479846500685,0],[-74.367933473703985,41.285454505477027,0]]]},"properties":{"COUNTYNAME":"Orange","MUNINAME":"Warwick","NYSGEO_SOURCE":"NYSERDA","SOURCE":"Orange County GIS Division","SOURCEDATE":"2013","SOURCEID":" ","OBJECTID":7159287}},{"type":"Feature","id":7206372,"geometry":{"type":"Polygon","coordinates":[[[-74.366551823124894,41.282339500736597,0],[-74.366436947161574,41.282355150042534,0],[-74.366456789863804,41.28243803033218,0],[-74.366571667153607,41.282422381914955,0],[-74.366551823124894,41.282339500736597,0]]]},"properties":{"COUNTYNAME":"Orange","MUNINAME":"Warwick","NYSGEO_SOURCE":"NYSERDA","SOURCE":"Orange County GIS Division","SOURCEDATE":"2013","SOURCEID":" ","OBJECTID":7206372}},{"type":"Feature","id":7157338,"geometry":{"type":"Polygon","coordinates":[[[-74.366419063954311,41.285882999183997,0],[-74.366401179844772,41.285953827540439,0],[-74.366392539542218,41.285952616187707,0],[-74.366376946686088,41.286015213285211,0],[-74.366509955422899,41.286034067028403,0],[-74.366526235558126,41.285968554292808,0],[-74.366520552333228,41.285967689805119,0],[-74.366537520367217,41.285899947838715,0],[-74.366419063954311,41.285882999183997,0]]]},"properties":{"COUNTYNAME":"Orange","MUNINAME":"Warwick","NYSGEO_SOURCE":"NYSERDA","SOURCE":"Orange County GIS Division","SOURCEDATE":"2013","SOURCEID":" ","OBJECTID":7157338}},{"type":"Feature","id":7159352,"geometry":{"type":"Polygon","coordinates":[[[-74.366047755107047,41.284284433725055,0],[-74.366015229161604,41.284397959982797,0],[-74.366132996045067,41.284417139171246,0],[-74.366165294915419,41.284303611630058,0],[-74.366047755107047,41.284284433725055,0]]]},"properties":{"COUNTYNAME":"Orange","MUNINAME":"Warwick","NYSGEO_SOURCE":"NYSERDA","SOURCE":"Orange County GIS Division","SOURCEDATE":"2013","SOURCEID":" ","OBJECTID":7159352}},{"type":"Feature","id":7159221,"geometry":{"type":"Polygon","coordinates":[[[-74.365944211354375,41.284983196873199,0],[-74.365907089251877,41.285119705292125,0],[-74.366029179598115,41.285138717436958,0],[-74.366066529544469,41.285002209332589,0],[-74.365944211354375,41.284983196873199,0]]]},"properties":{"COUNTYNAME":"Orange","MUNINAME":"Warwick","NYSGEO_SOURCE":"NYSERDA","SOURCE":"Orange County GIS Division","SOURCEDATE":"2013","SOURCEID":" ","OBJECTID":7159221}},{"type":"Feature","id":7206316,"geometry":{"type":"Polygon","coordinates":[[[-74.365567717708061,41.282485029383501,0],[-74.365515609848629,41.28249886361511,0],[-74.365542327619224,41.282556191003486,0],[-74.365594434324862,41.282542356753645,0],[-74.365567717708061,41.282485029383501,0]]]},"properties":{"COUNTYNAME":"Orange","MUNINAME":"Warwick","NYSGEO_SOURCE":"NYSERDA","SOURCE":"Orange County GIS Division","SOURCEDATE":"2013","SOURCEID":" ","OBJECTID":7206316}},{"type":"Feature","id":7206368,"geometry":{"type":"Polygon","coordinates":[[[-74.370173918513203,41.283365207447254,0],[-74.370113350978727,41.283402193266987,0],[-74.370145812069893,41.283432592691767,0],[-74.370206607235616,41.28339577924725,0],[-74.370173918513203,41.283365207447254,0]]]},"properties":{"COUNTYNAME":"Orange","MUNINAME":"Warwick","NYSGEO_SOURCE":"NYSERDA","SOURCE":"Orange County GIS Division","SOURCEDATE":"2013","SOURCEID":" ","OBJECTID":7206368}},{"type":"Feature","id":7205241,"geometry":{"type":"Polygon","coordinates":[[[-74.368760331227577,41.286058269306523,0],[-74.368690238889855,41.286080147523741,0],[-74.368709954334136,41.286115679401384,0],[-74.368779818613163,41.286093800822606,0],[-74.368760331227577,41.286058269306523,0]]]},"properties":{"COUNTYNAME":"Orange","MUNINAME":"Warwick","NYSGEO_SOURCE":"NYSERDA","SOURCE":"Orange County GIS Division","SOURCEDATE":"2013","SOURCEID":" ","OBJECTID":7205241}},{"type":"Feature","id":7159491,"geometry":{"type":"Polygon","coordinates":[[[-74.368220617622811,41.28369441619818,0],[-74.368163597174913,41.283776523027136,0],[-74.368340618168787,41.283846716123463,0],[-74.368397866066942,41.283764782502963,0],[-74.368220617622811,41.28369441619818,0]]]},"properties":{"COUNTYNAME":"Orange","MUNINAME":"Warwick","NYSGEO_SOURCE":"NYSERDA","SOURCE":"Orange County GIS Division","SOURCEDATE":"2013","SOURCEID":" ","OBJECTID":7159491}},{"type":"Feature","id":7159438,"geometry":{"type":"Polygon","coordinates":[[[-74.367012980176014,41.284267196933094,0],[-74.366901312055504,41.284268269117213,0],[-74.366902540711408,41.284335001479626,0],[-74.36689116942145,41.284335160533054,0],[-74.366892401968755,41.28440000669913,0],[-74.367063657366757,41.284398318144895,0],[-74.367062644859843,41.284336388089152,0],[-74.367014429870466,41.284337018357178,0],[-74.367012980176014,41.284267196933094,0]]]},"properties":{"COUNTYNAME":"Orange","MUNINAME":"Warwick","NYSGEO_SOURCE":"NYSERDA","SOURCE":"Orange County GIS Division","SOURCEDATE":"2013","SOURCEID":" ","OBJECTID":7159438}},{"type":"Feature","id":7159465,"geometry":{"type":"Polygon","coordinates":[[[-74.369570441113737,41.284001308516586,0],[-74.369543591192638,41.284122046926903,0],[-74.369661822207235,41.284137105816718,0],[-74.369688897612264,41.284016367712603,0],[-74.369570441113737,41.284001308516586,0]]]},"properties":{"COUNTYNAME":"Orange","MUNINAME":"Warwick","NYSGEO_SOURCE":"NYSERDA","SOURCE":"Orange County GIS Division","SOURCEDATE":"2013","SOURCEID":" ","OBJECTID":7159465}},{"type":"Feature","id":7159520,"geometry":{"type":"Polygon","coordinates":[[[-74.368749908755348,41.282519922721825,0],[-74.368560677883394,41.282529313187375,0],[-74.368569347980696,41.28262847725118,0],[-74.368758579593347,41.282618915629286,0],[-74.368749908755348,41.282519922721825,0]]]},"properties":{"COUNTYNAME":"Orange","MUNINAME":"Warwick","NYSGEO_SOURCE":"NYSERDA","SOURCE":"Orange County GIS Division","SOURCEDATE":"2013","SOURCEID":" ","OBJECTID":7159520}},{"type":"Feature","id":7159512,"geometry":{"type":"Polygon","coordinates":[[[-74.368804499318387,41.283877610493846,0],[-74.368679627009186,41.283886216326252,0],[-74.368698195644868,41.284039429637446,0],[-74.368823067797933,41.284030994030743,0],[-74.368804499318387,41.283877610493846,0]]]},"properties":{"COUNTYNAME":"Orange","MUNINAME":"Warwick","NYSGEO_SOURCE":"NYSERDA","SOURCE":"Orange County GIS Division","SOURCEDATE":"2013","SOURCEID":" ","OBJECTID":7159512}},{"type":"Feature","id":7206221,"geometry":{"type":"Polygon","coordinates":[[[-74.366947984876035,41.285922724444063,0],[-74.366937440537896,41.28596319849683,0],[-74.36698859726657,41.285970804884393,0],[-74.366999141565728,41.285930331727521,0],[-74.366947984876035,41.285922724444063,0]]]},"properties":{"COUNTYNAME":"Orange","MUNINAME":"Warwick","NYSGEO_SOURCE":"NYSERDA","SOURCE":"Orange County GIS Division","SOURCEDATE":"2013","SOURCEID":" ","OBJECTID":7206221}},{"type":"Feature","id":7159337,"geometry":{"type":"Polygon","coordinates":[[[-74.366600518927626,41.285229957936998,0],[-74.366560903810395,41.285362346226229,0],[-74.366672304485348,41.285381345709403,0],[-74.366711919389857,41.285248957380745,0],[-74.366600518927626,41.285229957936998,0]]]},"properties":{"COUNTYNAME":"Orange","MUNINAME":"Warwick","NYSGEO_SOURCE":"NYSERDA","SOURCE":"Orange County GIS Division","SOURCEDATE":"2013","SOURCEID":" ","OBJECTID":7159337}},{"type":"Feature","id":7157386,"geometry":{"type":"Polygon","coordinates":[[[-74.366498668103958,41.283202493274516,0],[-74.36632168419645,41.283227848783461,0],[-74.366327099444263,41.283248612570716,0],[-74.366287061914477,41.283254398530126,0],[-74.366303080817616,41.283317547082838,0],[-74.366519875624988,41.283286405230491,0],[-74.366498668103958,41.283202493274516,0]]]},"properties":{"COUNTYNAME":"Orange","MUNINAME":"Warwick","NYSGEO_SOURCE":"NYSERDA","SOURCE":"Orange County GIS Division","SOURCEDATE":"2013","SOURCEID":" ","OBJECTID":7157386}}]}