{"type":"FeatureCollection","features":[{"type":"Feature","id":1752045,"geometry":{"type":"Polygon","coordinates":[[[-74.368950345578085,41.280913540102453],[-74.368771967112124,41.281242447320423],[-74.369391351907268,41.281432051515488],[-74.37031452716856,41.281826284417022],[-74.37046996176386,41.281359802734094],[-74.368950345578085,41.280913540102453]]]},"properties":{"OBJECTID":1752045,"PARCEL_ADDR":"120 Sleepy Valley Rd","LOC_ST_NBR":"120","LOC_STREET":"Sleepy Valley Rd","LOC_ZIP":"10990","PRINT_KEY":"31-1-12.21","SBL":"03100000010122100000","YR_BLT":1985,"BLDG_STYLE_DESC":"Cape cod","FRONT":0,"DEPTH":0,"ACRES":1.5}},{"type":"Feature","id":1752061,"geometry":{"type":"Polygon","coordinates":[[[-74.368707573177616,41.2851958867154],[-74.368496219354199,41.285560055056237],[-74.369231917114007,41.285802981325247],[-74.369442603489162,41.285438590907596],[-74.368707573177616,41.2851958867154]]]},"properties":{"OBJECTID":1752061,"PARCEL_ADDR":"32 Beverly Dr","LOC_ST_NBR":"32","LOC_STREET":"Beverly Dr","LOC_ZIP":"10990","PRINT_KEY":"90-1-7","SBL":"09000000010070000000","YR_BLT":1983,"BLDG_STYLE_DESC":"Raised ranch","FRONT":145,"DEPTH":221,"ACRES":0}},{"type":"Feature","id":1752065,"geometry":{"type":"Polygon","coordinates":[[[-74.368917389085269,41.283386316111581],[-74.368321002059702,41.283368385591949],[-74.368320578054906,41.283381133124024],[-74.368329298899667,41.283387394156797],[-74.368338288340723,41.28339343579966],[-74.368347537394897,41.283399247927115],[-74.368357037977347,41.283404827163935],[-74.368366777511653,41.283410165409677],[-74.368376745218043,41.28341525726411],[-74.368386929418421,41.283420098676906],[-74.368397322027931,41.283424682897774],[-74.368407909571872,41.283429006551543],[-74.368418681270455,41.283433060862649],[-74.368429625445557,41.283436845831261],[-74.36844072862246,41.283440356056914],[-74.368451980021405,41.283443586814485],[-74.36899520654508,41.283591854517297],[-74.369010516532455,41.283596226763024],[-74.369025650450041,41.283600939904453],[-74.369040589433212,41.283605989891413],[-74.369055326295452,41.283611368623177],[-74.36906984486707,41.283617075424715],[-74.369700171142384,41.283369801159488],[-74.369105534034986,41.283051411101859],[-74.368917389085269,41.283386316111581]]]},"properties":{"OBJECTID":1752065,"PARCEL_ADDR":"44 Beverly Dr","LOC_ST_NBR":"44","LOC_STREET":"Beverly Dr","LOC_ZIP":"10990","PRINT_KEY":"90-1-1","SBL":"09000000010010000000","YR_BLT":1985,"BLDG_STYLE_DESC":"Raised ranch","FRONT":224,"DEPTH":195,"ACRES":0}},{"type":"Feature","id":1752051,"geometry":{"type":"Polygon","coordinates":[[[-74.365967686408226,41.283105543805959],[-74.365833226576498,41.283679551840784],[-74.366545955312802,41.283493565654787],[-74.366686711436358,41.282921888952508],[-74.365967686408226,41.283105543805959]]]},"properties":{"OBJECTID":1752051,"PARCEL_ADDR":"69 West Ridge Rd","LOC_ST_NBR":"69","LOC_STREET":"West Ridge Rd","LOC_ZIP":"10990","PRINT_KEY":"31-1-7","SBL":"03100000010070000000","YR_BLT":1961,"BLDG_STYLE_DESC":"Ranch","FRONT":0,"DEPTH":0,"ACRES":1}},{"type":"Feature","id":1752052,"geometry":{"type":"Polygon","coordinates":[[[-74.365833226576498,41.283679551840784],[-74.365762908252691,41.283697900125112],[-74.365663850127987,41.284075670718771],[-74.366398370196464,41.283989554190896],[-74.366545955312802,41.283493565654787],[-74.365833226576498,41.283679551840784]]]},"properties":{"OBJECTID":1752052,"PARCEL_ADDR":"2 Beverly Dr","LOC_ST_NBR":"2","LOC_STREET":"Beverly Dr","LOC_ZIP":"10990","PRINT_KEY":"90-3-1","SBL":"09000000030010000000","YR_BLT":1985,"BLDG_STYLE_DESC":"Raised ranch","FRONT":185,"DEPTH":228,"ACRES":0}},{"type":"Feature","id":1752093,"geometry":{"type":"Polygon","coordinates":[[[-74.366315795258927,41.284414238602928],[-74.366313739913551,41.284390441649407],[-74.36631274727516,41.284366606885278],[-74.366312818242051,41.28434275928678],[-74.36631395011932,41.28431892855545],[-74.366316144703561,41.284295138992526],[-74.36631939929984,41.284271417599442],[-74.366323708518252,41.284247793402756],[-74.36632906696893,41.284224291378962],[-74.366335470160266,41.284200938529509],[-74.366398370196464,41.283989554190896],[-74.365663850127987,41.284075670718771],[-74.365570470254212,41.284431790816626],[-74.366326073782403,41.284508751973043],[-74.366315795258927,41.284414238602928]]]},"properties":{"OBJECTID":1752093,"PARCEL_ADDR":"4 Beverly Dr","LOC_ST_NBR":"4","LOC_STREET":"Beverly Dr","LOC_ZIP":"10990","PRINT_KEY":"90-3-2","SBL":"09000000030020000000","YR_BLT":1986,"BLDG_STYLE_DESC":"Colonial","FRONT":192,"DEPTH":209,"ACRES":0}},{"type":"Feature","id":1752090,"geometry":{"type":"Polygon","coordinates":[[[-74.366220231580684,41.285225161877655],[-74.365379195574022,41.2851400216041],[-74.365272215206829,41.285494669745297],[-74.366122375401829,41.285580735685301],[-74.366220231580684,41.285225161877655]]]},"properties":{"OBJECTID":1752090,"PARCEL_ADDR":"10 Beverly Dr","LOC_ST_NBR":"10","LOC_STREET":"Beverly Dr","LOC_ZIP":"10990","PRINT_KEY":"90-3-5","SBL":"09000000030050000000","YR_BLT":1983,"BLDG_STYLE_DESC":"Ranch","FRONT":132,"DEPTH":236,"ACRES":0}},{"type":"Feature","id":1752072,"geometry":{"type":"Polygon","coordinates":[[[-74.369231917114007,41.285802981325247],[-74.368496219354199,41.285560055056237],[-74.36827425642727,41.286066048501937],[-74.369026435577609,41.28625377901794],[-74.369187235810102,41.285880258797953],[-74.369231917114007,41.285802981325247]]]},"properties":{"OBJECTID":1752072,"PARCEL_ADDR":"30 Beverly Dr","LOC_ST_NBR":"30","LOC_STREET":"Beverly Dr","LOC_ZIP":"10990","PRINT_KEY":"90-1-8","SBL":"09000000010080000000","YR_BLT":1983,"BLDG_STYLE_DESC":"Colonial","FRONT":194,"DEPTH":221,"ACRES":0}},{"type":"Feature","id":1752073,"geometry":{"type":"Polygon","coordinates":[[[-74.369026435577609,41.28625377901794],[-74.36827425642727,41.286066048501937],[-74.368142040587117,41.286367431748005],[-74.368136095536585,41.28638027792114],[-74.36812959532719,41.286392968163696],[-74.36812254624715,41.286405491675708],[-74.36811495727963,41.286417834956914],[-74.368106837407765,41.286429983157198],[-74.368098192021492,41.28644192412645],[-74.36808903369716,41.286453645039522],[-74.368079371417963,41.28646513374634],[-74.368069215963672,41.286476376746791],[-74.368058576317452,41.286487363915796],[-74.368047466852332,41.28649808175323],[-74.368807372412419,41.286762631147354],[-74.369026435577609,41.28625377901794]]]},"properties":{"OBJECTID":1752073,"PARCEL_ADDR":"28 Beverly Dr","LOC_ST_NBR":"28","LOC_STREET":"Beverly Dr","LOC_ZIP":"10990","PRINT_KEY":"90-1-9","SBL":"09000000010090000000","YR_BLT":1983,"BLDG_STYLE_DESC":"Ranch","FRONT":170,"DEPTH":230,"ACRES":0}},{"type":"Feature","id":1752076,"geometry":{"type":"Polygon","coordinates":[[[-74.367398487958468,41.287625614339866],[-74.367711180729088,41.287764882909052],[-74.36733457102936,41.28669448490178],[-74.366995073428981,41.286737827936442],[-74.366976949019815,41.286739948140507],[-74.366958750948811,41.286741687639349],[-74.366940498978863,41.286743045082886],[-74.366815007926917,41.287365736089008],[-74.367398487958468,41.287625614339866]]]},"properties":{"OBJECTID":1752076,"PARCEL_ADDR":"22 Beverly Dr","LOC_ST_NBR":"22","LOC_STREET":"Beverly Dr","LOC_ZIP":"10990","PRINT_KEY":"90-1-12","SBL":"09000000010120000000","YR_BLT":1983,"BLDG_STYLE_DESC":"Raised ranch","FRONT":0,"DEPTH":0,"ACRES":1.2}},{"type":"Feature","id":1752066,"geometry":{"type":"Polygon","coordinates":[[[-74.369700171142384,41.283369801159488],[-74.36906984486707,41.283617075424715],[-74.369086540954953,41.283624161335567],[-74.369102902869528,41.283631679947128],[-74.369118909051267,41.283639620458651],[-74.369134541533839,41.283647974094499],[-74.369149780554309,41.283656732078882],[-74.369164609044716,41.283665882260927],[-74.369179007242096,41.283675415189961],[-74.369192959875079,41.283685316689855],[-74.369206448079083,41.283695578660023],[-74.369219459277659,41.283706186249397],[-74.369231975504491,41.283717127307071],[-74.369243981488268,41.283728388332051],[-74.369255461957607,41.283739957173445],[-74.369266405234413,41.283751818980242],[-74.369276796945613,41.283763958901353],[-74.36928662631145,41.28377636208576],[-74.369295879857191,41.283789015707576],[-74.369304545904726,41.283801903565688],[-74.369312617267553,41.283815010134084],[-74.369320079572631,41.283828319211672],[-74.369326926531727,41.283841815947405],[-74.369333150958326,41.28385548346526],[-74.369338743869292,41.283869304889116],[-74.369343698078083,41.283883263342936],[-74.369920559322622,41.283903312667277],[-74.369804615565528,41.283861107215657],[-74.370012087768586,41.283536810234366],[-74.369700171142384,41.283369801159488]]]},"properties":{"OBJECTID":1752066,"PARCEL_ADDR":"42 Beverly Dr","LOC_ST_NBR":"42","LOC_STREET":"Beverly Dr","LOC_ZIP":"10990","PRINT_KEY":"90-1-2","SBL":"09000000010020000000","YR_BLT":1984,"BLDG_STYLE_DESC":"Raised ranch","FRONT":126,"DEPTH":195,"ACRES":0}},{"type":"Feature","id":1752063,"geometry":{"type":"Polygon","coordinates":[[[-74.369114699545847,41.284494373107805],[-74.368910410972134,41.284846388770539],[-74.369644798988261,41.285088880954426],[-74.369848446164852,41.284736655315413],[-74.369114699545847,41.284494373107805]]]},"properties":{"OBJECTID":1752063,"PARCEL_ADDR":"36 Beverly Dr","LOC_ST_NBR":"36","LOC_STREET":"Beverly Dr","LOC_ZIP":"10990","PRINT_KEY":"90-1-5","SBL":"09000000010050000000","YR_BLT":1984,"BLDG_STYLE_DESC":"Raised ranch","FRONT":140,"DEPTH":220,"ACRES":0}},{"type":"Feature","id":1752056,"geometry":{"type":"Polygon","coordinates":[[[-74.368419037901617,41.284076414609295],[-74.367937911913543,41.283945094842672],[-74.367936444964684,41.283989346279284],[-74.367795166919962,41.284256400098862],[-74.368882042175471,41.284553051629729],[-74.369057521778018,41.284250680527556],[-74.368419037901617,41.284076414609295]]]},"properties":{"OBJECTID":1752056,"PARCEL_ADDR":"39 Beverly Dr","LOC_ST_NBR":"39","LOC_STREET":"Beverly Dr","LOC_ZIP":"10990","PRINT_KEY":"90-2-3","SBL":"09000000020030000000","YR_BLT":1984,"BLDG_STYLE_DESC":"Raised ranch","FRONT":120,"DEPTH":327,"ACRES":0}},{"type":"Feature","id":1752087,"geometry":{"type":"Polygon","coordinates":[[[-74.367416979778596,41.285204878725743],[-74.368355138040513,41.285460939555705],[-74.368530620337992,41.285158574685553],[-74.367526802415341,41.284884592691476],[-74.367445115013282,41.285122821269411],[-74.367416979778596,41.285204878725743]]]},"properties":{"OBJECTID":1752087,"PARCEL_ADDR":"33 Beverly Dr","LOC_ST_NBR":"33","LOC_STREET":"Beverly Dr","LOC_ZIP":"10990","PRINT_KEY":"90-2-6","SBL":"09000000020060000000","YR_BLT":1986,"BLDG_STYLE_DESC":"Split level","FRONT":120,"DEPTH":293,"ACRES":0}},{"type":"Feature","id":1752046,"geometry":{"type":"Polygon","coordinates":[[[-74.366884857330149,41.282877850107567],[-74.366513007803135,41.284230988403571],[-74.367936444964684,41.283989346279284],[-74.367937911913543,41.283945094842672],[-74.367958488723445,41.283324595464777],[-74.367981233168123,41.282599915558372],[-74.366884857330149,41.282877850107567]]]},"properties":{"OBJECTID":1752046,"PARCEL_ADDR":"65 West Ridge Rd","LOC_ST_NBR":"65","LOC_STREET":"West Ridge Rd","LOC_ZIP":"10990","PRINT_KEY":"31-1-6","SBL":"03100000010060000000","YR_BLT":1964,"BLDG_STYLE_DESC":"Cape cod","FRONT":0,"DEPTH":0,"ACRES":4}},{"type":"Feature","id":1752088,"geometry":{"type":"Polygon","coordinates":[[[-74.367445115013282,41.285122821269411],[-74.366437355283153,41.28511074842865],[-74.366347000935264,41.285439076248949],[-74.367332625278479,41.285450884420044],[-74.367416979778596,41.285204878725743],[-74.367445115013282,41.285122821269411]]]},"properties":{"OBJECTID":1752088,"PARCEL_ADDR":"11 Beverly Dr","LOC_ST_NBR":"11","LOC_STREET":"Beverly Dr","LOC_ZIP":"10990","PRINT_KEY":"90-2-13","SBL":"09000000020130000000","YR_BLT":1984,"BLDG_STYLE_DESC":"Raised ranch","FRONT":122,"DEPTH":277,"ACRES":0}},{"type":"Feature","id":1752077,"geometry":{"type":"Polygon","coordinates":[[[-74.364981153868243,41.286459545996017],[-74.36491414314132,41.286681684691196],[-74.365516399758931,41.286915123605574],[-74.365802357768388,41.287000605816374],[-74.366155283385638,41.286592154698127],[-74.366156265244243,41.28659097342922],[-74.366156624570351,41.286590542097315],[-74.366157212068558,41.286589777985135],[-74.366157889398281,41.286588896420987],[-74.366158122960243,41.286588567015713],[-74.36615899342776,41.286587338496048],[-74.366159078767708,41.286587219694141],[-74.366159812691308,41.286586090401002],[-74.366160189983717,41.286585511241704],[-74.366160596022212,41.286584828805701],[-74.36616122214798,41.286583775788785],[-74.366161341623908,41.286583555060218],[-74.36616203781827,41.28658226511444],[-74.366162174362188,41.286582014010413],[-74.366162687300218,41.286580961668434],[-74.36616304393138,41.28658022793158],[-74.366163297256293,41.286579646747221],[-74.366163832652191,41.286578420927363],[-74.366163869483131,41.286578323725806],[-74.366164385116093,41.28657698517911],[-74.366164537829704,41.2865765943478],[-74.366164856731615,41.286575639207335],[-74.366165156768915,41.286574750217902],[-74.3661652906179,41.286574285135323],[-74.366165682283366,41.286572924313205],[-74.366165692164827,41.286572891237661],[-74.366166011965063,41.286571554715927],[-74.366166141322466,41.286571018082199],[-74.366166302120916,41.286570179043508],[-74.366166503343536,41.286569136151492],[-74.366166553649194,41.286568798646009],[-74.366166755770124,41.286567414198387],[-74.366166780024628,41.286567244770616],[-74.366166903093841,41.286566025025692],[-74.366166968670854,41.286565347989566],[-74.366167008196726,41.286564635852912],[-74.366167071078792,41.286563446483392],[-74.366167072875427,41.286563243305089],[-74.366167083655199,41.286561850757238],[-74.366167085451835,41.286561544977168],[-74.366167044129327,41.286560457534279],[-74.366167013586619,41.286559642795908],[-74.366166964179286,41.286559067011432],[-74.366166852788197,41.286557743989611],[-74.366166843805033,41.286557676488513],[-74.366166662345336,41.286556290690612],[-74.366166605751488,41.286555851258363],[-74.366166439563159,41.28655490759278],[-74.366166271578194,41.286553964602156],[-74.366166174560149,41.286553529894945],[-74.366165865539685,41.286552156247218],[-74.366165850268317,41.286552089421086],[-74.366165497230412,41.286550792724604],[-74.366165344516816,41.286550225715146],[-74.366165090293592,41.286549432576969],[-74.366164751628716,41.28654837618442],[-74.366164642932574,41.286548081879523],[-74.366164147960859,41.286546740632161],[-74.366164076095643,41.286546542853884],[-74.36616360088685,41.286545409509969],[-74.366163315222579,41.286544729098615],[-74.366163014286968,41.286544089862979],[-74.366162472602866,41.286542936268681],[-74.36616238995785,41.28654277831604],[-74.366161712628127,41.286541482969362],[-74.366161547338109,41.286541165714056],[-74.36616099128095,41.286540201797884],[-74.366160542123311,41.286539420809795],[-74.366160232204535,41.286538930751568],[-74.366159456060132,41.286537704255991],[-74.366159435398885,41.286537673880467],[-74.366158583795993,41.286536438609708],[-74.366158292741844,41.286536016052587],[-74.366157694463865,41.286535217514164],[-74.366157053965068,41.286534360249689],[-74.366156770097433,41.286534011943857],[-74.366155807103439,41.286532822573783],[-74.366155736136534,41.286532736847342],[-74.366154794702126,41.286531659529167],[-74.366154347341109,41.286531148545535],[-74.366153748164805,41.286530512684784],[-74.366152884883846,41.286529598044268],[-74.366152666593209,41.286529383390672],[-74.366151544597429,41.286528275696867],[-74.366151353256271,41.286528086018663],[-74.366150381279127,41.286527194328542],[-74.366149753356765,41.286526616518756],[-74.366149189214738,41.286526132535549],[-74.36614808698188,41.286525188194517],[-74.366147962116074,41.286525090317859],[-74.366146693694887,41.286524076450611],[-74.36614635503004,41.286523805095975],[-74.366145393832667,41.286523089583802],[-74.366144561094401,41.286522468573224],[-74.36614406342774,41.28652212296732],[-74.366142706073347,41.286521178626224],[-74.366128789372965,41.286511502335493],[-74.36611532632179,41.286501468287085],[-74.366102332191218,41.286491087281128],[-74.366089823150887,41.286480372142535],[-74.366077814472149,41.286469338396536],[-74.366066320528105,41.286457995493102],[-74.366055354793431,41.286446360307352],[-74.366044929844563,41.286434444314388],[-74.366035059156204,41.28642226168926],[-74.366025754406508,41.28640983065722],[-74.366017027273514,41.286397161343331],[-74.366008885842092,41.286384273322767],[-74.366001344485298,41.286371180770665],[-74.365994406796347,41.28635789651225],[-74.365988084453377,41.286344440122683],[-74.365982384642905,41.28633082712723],[-74.365977314551444,41.2863170723761],[-74.365972880467197,41.286303193419478],[-74.364981153868243,41.286459545996017]]]},"properties":{"OBJECTID":1752077,"PARCEL_ADDR":"16 Beverly Dr","LOC_ST_NBR":"16","LOC_STREET":"Beverly Dr","LOC_ZIP":"10990","PRINT_KEY":"90-3-8","SBL":"09000000030080000000","YR_BLT":1983,"BLDG_STYLE_DESC":"Colonial","FRONT":0,"DEPTH":0,"ACRES":1.2}},{"type":"Feature","id":1752097,"geometry":{"type":"Polygon","coordinates":[[[-74.364379484748838,41.284682122996252],[-74.365421746074091,41.284998959960113],[-74.365472855722174,41.284804050948111],[-74.365570470254212,41.284431790816626],[-74.365663850127987,41.284075670718771],[-74.365762908252691,41.283697900125112],[-74.365833226576498,41.283679551840784],[-74.365967686408226,41.283105543805959],[-74.365634276690528,41.283211175725938],[-74.364897923160555,41.283522491908812],[-74.36464539146283,41.28407859295303],[-74.364379484748838,41.284682122996252]]]},"properties":{"OBJECTID":1752097,"PARCEL_ADDR":"73 West Ridge Rd","LOC_ST_NBR":"73","LOC_STREET":"West Ridge Rd","LOC_ZIP":"10990","PRINT_KEY":"31-1-8","SBL":"03100000010080000000","YR_BLT":1790,"BLDG_STYLE_DESC":"Old style","FRONT":0,"DEPTH":0,"ACRES":3.8000000000000003}},{"type":"Feature","id":1752074,"geometry":{"type":"Polygon","coordinates":[[[-74.368526400951126,41.287415271823861],[-74.367711321764588,41.286646384366463],[-74.36733457102936,41.28669448490178],[-74.367711180729088,41.287764882909052],[-74.368268938400789,41.288013299487673],[-74.368526400951126,41.287415271823861]]]},"properties":{"OBJECTID":1752074,"PARCEL_ADDR":"24 Beverly Dr","LOC_ST_NBR":"24","LOC_STREET":"Beverly Dr","LOC_ZIP":"10990","PRINT_KEY":"90-1-11","SBL":"09000000010110000000","YR_BLT":1982,"BLDG_STYLE_DESC":"Colonial","FRONT":0,"DEPTH":0,"ACRES":2}},{"type":"Feature","id":1752084,"geometry":{"type":"Polygon","coordinates":[[[-74.367303192876506,41.285536724285542],[-74.368214934380859,41.285764288552997],[-74.368325932014002,41.285511263137224],[-74.368355138040513,41.285460939555705],[-74.367416979778596,41.285204878725743],[-74.367332625278479,41.285450884420044],[-74.367303192876506,41.285536724285542]]]},"properties":{"OBJECTID":1752084,"PARCEL_ADDR":"31 Beverly Dr","LOC_ST_NBR":"31","LOC_STREET":"Beverly Dr","LOC_ZIP":"10990","PRINT_KEY":"90-2-7","SBL":"09000000020070000000","YR_BLT":1983,"BLDG_STYLE_DESC":"Raised ranch","FRONT":117,"DEPTH":274,"ACRES":0}},{"type":"Feature","id":1752082,"geometry":{"type":"Polygon","coordinates":[[[-74.368035944162187,41.286172275043022],[-74.367185555795103,41.285955753458353],[-74.367155861983377,41.28610755591113],[-74.367061318791301,41.286590880952737],[-74.367680540093062,41.286511823641021],[-74.367693201847004,41.286510034860235],[-74.367705771074455,41.286507913298649],[-74.367718236097332,41.286505462331306],[-74.36773058074597,41.286502683983194],[-74.367742786155731,41.286499580954342],[-74.367754841546841,41.286496159319732],[-74.367766731647947,41.28649242177945],[-74.367778442085992,41.286488373058496],[-74.367789956691311,41.286484017881897],[-74.367801261989143,41.286479362999707],[-74.367812345403138,41.286474411786877],[-74.367823192560195,41.28646917234358],[-74.367833789985596,41.286463648044709],[-74.367844124204623,41.286457849690471],[-74.367854185335801,41.286451782680821],[-74.367863958107776,41.286445453090813],[-74.367873431740762,41.286438869695566],[-74.367882595454986,41.286432041270174],[-74.367891436674,41.286424975914642],[-74.367899945516371,41.286417680379024],[-74.367908109405676,41.286410165463536],[-74.367915922952008,41.286402440618183],[-74.367923370884029,41.286394514618124],[-74.367930448710155,41.28638639623837],[-74.367937145650615,41.286378097629168],[-74.367943454518851,41.286369626215595],[-74.367949366331715,41.286360994147735],[-74.367954875699382,41.286352212225822],[-74.367959973638605,41.286343289224909],[-74.367964656556182,41.28633423662022],[-74.367968914570639,41.286325068586955],[-74.368035944162187,41.286172275043022]]]},"properties":{"OBJECTID":1752082,"PARCEL_ADDR":"27 Beverly Dr","LOC_ST_NBR":"27","LOC_STREET":"Beverly Dr","LOC_ZIP":"10990","PRINT_KEY":"90-2-9","SBL":"09000000020090000000","YR_BLT":1983,"BLDG_STYLE_DESC":"Ranch","FRONT":341,"DEPTH":247,"ACRES":0}},{"type":"Feature","id":1752080,"geometry":{"type":"Polygon","coordinates":[[[-74.36638886332581,41.287175929082679],[-74.366815007926917,41.287365736089008],[-74.366940498978863,41.286743045082886],[-74.366918332150902,41.286744176398308],[-74.36689612849203,41.286744745431044],[-74.366873914053372,41.286744750831168],[-74.366851710394485,41.286744192598562],[-74.366829543566539,41.28674307343325],[-74.366807438722347,41.286741391985274],[-74.366785422811361,41.286739151629583],[-74.366763518291464,41.286736351691154],[-74.366741751213823,41.286733000269962],[-74.366720145832915,41.286729099390982],[-74.366698726403285,41.286724651079126],[-74.366677518976047,41.28671966343444],[-74.366656541517543,41.286714139831801],[-74.366635825468776,41.286708088371213],[-74.366615390592699,41.286701515127582],[-74.366410743591189,41.286632595256286],[-74.366409053860139,41.286632052547979],[-74.366408434920913,41.286631853419919],[-74.366407348857734,41.286631536840027],[-74.366406094809591,41.286631172334445],[-74.366405630380598,41.286631050832575],[-74.366403895733782,41.286630596550594],[-74.366403725952196,41.28663055199992],[-74.366402143120666,41.286630184119218],[-74.366401328348701,41.286629995116321],[-74.366400378829439,41.286629800713307],[-74.366398907389012,41.286629499658716],[-74.36639860286013,41.28662944498285],[-74.36639681521271,41.286629128402993],[-74.366396465768062,41.286629066977014],[-74.366395017683828,41.286628850298683],[-74.366394006180812,41.286628699771377],[-74.366393210273472,41.286628601894876],[-74.366391529525586,41.286628395341673],[-74.366391397473222,41.286628381841481],[-74.366389573893201,41.286628206338769],[-74.36638904209056,41.286628155712989],[-74.366387748516559,41.286628065261624],[-74.366386544774059,41.286627981560329],[-74.366385920444941,41.286627953209859],[-74.366384086085134,41.286627872883621],[-74.366384041169354,41.286627870858602],[-74.366382249928691,41.286627839808098],[-74.366381532174799,41.286627826982944],[-74.366380413772248,41.286627836433091],[-74.366379024078498,41.286627847233241],[-74.366378577615805,41.286627862083463],[-74.366376742357687,41.286627924859438],[-74.366376519575496,41.286627932284532],[-74.366374912489462,41.28662803016104],[-74.366374018665752,41.28662808348686],[-74.36637308531617,41.286628165163144],[-74.366371526739144,41.286628299490225],[-74.366371260837823,41.286628329865707],[-74.366369445342627,41.286628535068814],[-74.366369046490647,41.286628580294533],[-74.36636763703396,41.286628778072604],[-74.366366579716882,41.286628925224846],[-74.366365836810132,41.28662904942675],[-74.366364130909403,41.28662933428113],[-74.366364043772833,41.286629351156421],[-74.366362266006888,41.286629696086734],[-74.366361702763186,41.286629805438416],[-74.366360499919026,41.286630072742518],[-74.366359297074865,41.286630340721658],[-74.366358745509274,41.286630478423746],[-74.366357000980997,41.286630915830472],[-74.366356915641049,41.286630937430822],[-74.366355278910589,41.286631397112878],[-74.366354565648265,41.286631596915953],[-74.366353570314942,41.286631905395687],[-74.366352245299879,41.286632316477011],[-74.366351878787242,41.286632441353937],[-74.36635020432756,41.286633011062662],[-74.366349959087486,41.286633095438923],[-74.366348553224057,41.286633619246977],[-74.366347709706019,41.286633933126822],[-74.36634692278183,41.286634253081708],[-74.366345502545371,41.286634830215561],[-74.366345307610956,41.286634914591822],[-74.366343721186155,41.286635611877486],[-74.366343334012271,41.286635782655118],[-74.366342159015872,41.286636340888649],[-74.366341212191557,41.28663679179553],[-74.366340619303486,41.286637094875168],[-74.366339137083244,41.286637854261798],[-74.366339102947279,41.286637873837073],[-74.366337619828727,41.286638691274554],[-74.366337113178929,41.286638971403839],[-74.366336161863032,41.286639535037416],[-74.366335139580244,41.286640139846611],[-74.366334729050166,41.28664040175061],[-74.366333324983358,41.286641293439182],[-74.36633322167711,41.286641358915176],[-74.36633195864583,41.286642219553258],[-74.366331361266163,41.286642626584445],[-74.36633062105436,41.286643168617694],[-74.366329559245699,41.286643942854425],[-74.366329310412368,41.286644138607386],[-74.366328034804653,41.286645134247493],[-74.36632781831068,41.286645304350081],[-74.366326799621149,41.286646158913008],[-74.36632614025774,41.286646711071405],[-74.366325593183717,41.286647203153834],[-74.366324527781785,41.286648160318315],[-74.366324417289007,41.286648267644942],[-74.366323286310063,41.286649359136383],[-74.366322982679492,41.286649650740799],[-74.366322191263734,41.286650470878165],[-74.366321505849172,41.286651180313839],[-74.366321129455073,41.286651600845204],[-74.366320099985771,41.286652747012432],[-74.365974951083928,41.287052199921789],[-74.36638886332581,41.287175929082679]]]},"properties":{"OBJECTID":1752080,"PARCEL_ADDR":"20 Beverly Dr","LOC_ST_NBR":"20","LOC_STREET":"Beverly Dr","LOC_ZIP":"10990","PRINT_KEY":"90-1-13","SBL":"09000000010130000000","YR_BLT":1983,"BLDG_STYLE_DESC":"Raised ranch","FRONT":153,"DEPTH":202,"ACRES":0}},{"type":"Feature","id":1752057,"geometry":{"type":"Polygon","coordinates":[[[-74.367526802415341,41.284884592691476],[-74.368530620337992,41.285158574685553],[-74.368706101737175,41.284856209089348],[-74.367636622357139,41.284564307110216],[-74.36755760654475,41.284794754444263],[-74.367526802415341,41.284884592691476]]]},"properties":{"OBJECTID":1752057,"PARCEL_ADDR":"35 Beverly Dr","LOC_ST_NBR":"35","LOC_STREET":"Beverly Dr","LOC_ZIP":"10990","PRINT_KEY":"90-2-5","SBL":"09000000020050000000","YR_BLT":1983,"BLDG_STYLE_DESC":"Ranch","FRONT":120,"DEPTH":313,"ACRES":0}},{"type":"Feature","id":1752047,"geometry":{"type":"Polygon","coordinates":[[[-74.366965847639534,41.281993786184387],[-74.366443295842146,41.282134590377431],[-74.366523286326625,41.282829247222068],[-74.367077452533806,41.282687887610635],[-74.366965847639534,41.281993786184387]]]},"properties":{"OBJECTID":1752047,"PARCEL_ADDR":"66 West Ridge Rd","LOC_ST_NBR":"66","LOC_STREET":"West Ridge Rd","LOC_ZIP":"10990","PRINT_KEY":"31-1-11","SBL":"03100000010110000000","YR_BLT":1940,"BLDG_STYLE_DESC":"Old style","FRONT":0,"DEPTH":0,"ACRES":1}},{"type":"Feature","id":1752058,"geometry":{"type":"Polygon","coordinates":[[[-74.36755760654475,41.284794754444263],[-74.36652477932661,41.284782383179802],[-74.366521920887365,41.284799248789703],[-74.366518283608784,41.284816029341535],[-74.366513873779056,41.284832703234486],[-74.366437355283153,41.28511074842865],[-74.367445115013282,41.285122821269411],[-74.367526802415341,41.284884592691476],[-74.36755760654475,41.284794754444263]]]},"properties":{"OBJECTID":1752058,"PARCEL_ADDR":"9 Beverly Dr","LOC_ST_NBR":"9","LOC_STREET":"Beverly Dr","LOC_ZIP":"10990","PRINT_KEY":"90-2-14","SBL":"09000000020140000000","YR_BLT":1984,"BLDG_STYLE_DESC":"Raised ranch","FRONT":122,"DEPTH":284,"ACRES":0}},{"type":"Feature","id":1752049,"geometry":{"type":"Polygon","coordinates":[[[-74.365217717113495,41.283016844615247],[-74.365701785982424,41.283036659289237],[-74.366111018001689,41.28292199628526],[-74.365524550173504,41.282384588441943],[-74.365217717113495,41.283016844615247]]]},"properties":{"OBJECTID":1752049,"PARCEL_ADDR":"70 West Ridge Rd","LOC_ST_NBR":"70","LOC_STREET":"West Ridge Rd","LOC_ZIP":"10990","PRINT_KEY":"31-1-10.1","SBL":"03100000010101000000","YR_BLT":1950,"BLDG_STYLE_DESC":"Ranch","FRONT":120,"DEPTH":253,"ACRES":0}},{"type":"Feature","id":1752099,"geometry":{"type":"Polygon","coordinates":[[[-74.363264455393988,41.28814519696251],[-74.363170690142951,41.288508590828165],[-74.363043825566947,41.289000254409785],[-74.362961489581281,41.290286868055126],[-74.363125451883562,41.290316724784248],[-74.362865274624454,41.2914813992465],[-74.362892701088398,41.29148402619149],[-74.364050719321156,41.291594929477462],[-74.365236168509426,41.291708447361614],[-74.365043092707097,41.292351973971797],[-74.36485001061655,41.292995499633513],[-74.366377906574286,41.293227165157838],[-74.366470481557585,41.292727521131674],[-74.366481203848821,41.292659605873851],[-74.367398487958468,41.287625614339866],[-74.366815007926917,41.287365736089008],[-74.36638886332581,41.287175929082679],[-74.365974951083928,41.287052199921789],[-74.366320099985771,41.286652747012432],[-74.366321129455073,41.286651600845204],[-74.366321505849172,41.286651180313839],[-74.366322191263734,41.286650470878165],[-74.366322982679492,41.286649650740799],[-74.366323286310063,41.286649359136383],[-74.366324417289007,41.286648267644942],[-74.366324527781785,41.286648160318315],[-74.366325593183717,41.286647203153834],[-74.36632614025774,41.286646711071405],[-74.366326799621149,41.286646158913008],[-74.36632781831068,41.286645304350081],[-74.366328034804653,41.286645134247493],[-74.366329310412368,41.286644138607386],[-74.366329559245699,41.286643942854425],[-74.36633062105436,41.286643168617694],[-74.366331361266163,41.286642626584445],[-74.36633195864583,41.286642219553258],[-74.36633322167711,41.286641358915176],[-74.366333324983358,41.286641293439182],[-74.366334729050166,41.28664040175061],[-74.366335139580244,41.286640139846611],[-74.366336161863032,41.286639535037416],[-74.366337113178929,41.286638971403839],[-74.366337619828727,41.286638691274554],[-74.366339102947279,41.286637873837073],[-74.366339137083244,41.286637854261798],[-74.366340619303486,41.286637094875168],[-74.366341212191557,41.28663679179553],[-74.366342159015872,41.286636340888649],[-74.366343334012271,41.286635782655118],[-74.366343721186155,41.286635611877486],[-74.366345307610956,41.286634914591822],[-74.366345502545371,41.286634830215561],[-74.36634692278183,41.286634253081708],[-74.366347709706019,41.286633933126822],[-74.366348553224057,41.286633619246977],[-74.366349959087486,41.286633095438923],[-74.36635020432756,41.286633011062662],[-74.366351878787242,41.286632441353937],[-74.366352245299879,41.286632316477011],[-74.366353570314942,41.286631905395687],[-74.366354565648265,41.286631596915953],[-74.366355278910589,41.286631397112878],[-74.366356915641049,41.286630937430822],[-74.366357000980997,41.286630915830472],[-74.366358745509274,41.286630478423746],[-74.366359297074865,41.286630340721658],[-74.366360499919026,41.286630072742518],[-74.366361702763186,41.286629805438416],[-74.366362266006888,41.286629696086734],[-74.366364043772833,41.286629351156421],[-74.366364130909403,41.28662933428113],[-74.366365836810132,41.28662904942675],[-74.366366579716882,41.286628925224846],[-74.36636763703396,41.286628778072604],[-74.366369046490647,41.286628580294533],[-74.366369445342627,41.286628535068814],[-74.366371260837823,41.286628329865707],[-74.366371526739144,41.286628299490225],[-74.36637308531617,41.286628165163144],[-74.366374018665752,41.28662808348686],[-74.366374912489462,41.28662803016104],[-74.366376519575496,41.286627932284532],[-74.366376742357687,41.286627924859438],[-74.366378577615805,41.286627862083463],[-74.366379024078498,41.286627847233241],[-74.366380413772248,41.286627836433091],[-74.366381532174799,41.286627826982944],[-74.366382249928691,41.286627839808098],[-74.366384041169354,41.286627870858602],[-74.366384086085134,41.286627872883621],[-74.366385920444941,41.286627953209859],[-74.366386544774059,41.286627981560329],[-74.366387748516559,41.286628065261624],[-74.36638904209056,41.286628155712989],[-74.366389573893201,41.286628206338769],[-74.366391397473222,41.286628381841481],[-74.366391529525586,41.286628395341673],[-74.366393210273472,41.286628601894876],[-74.366394006180812,41.286628699771377],[-74.366395017683828,41.286628850298683],[-74.366396465768062,41.286629066977014],[-74.36639681521271,41.286629128402993],[-74.36639860286013,41.28662944498285],[-74.366398907389012,41.286629499658716],[-74.366400378829439,41.286629800713307],[-74.366401328348701,41.286629995116321],[-74.366402143120666,41.286630184119218],[-74.366403725952196,41.28663055199992],[-74.366403895733782,41.286630596550594],[-74.366405630380598,41.286631050832575],[-74.366406094809591,41.286631172334445],[-74.366407348857734,41.286631536840027],[-74.366408434920913,41.286631853419919],[-74.366409053860139,41.286632052547979],[-74.366410743591189,41.286632595256286],[-74.366284128746841,41.286589953487947],[-74.366267106570533,41.286583985717151],[-74.366266917025982,41.286583913491022],[-74.36625036736352,41.286577580538768],[-74.366250119428486,41.286577477262107],[-74.366233929990443,41.286570744027728],[-74.366233690140263,41.286570636025999],[-74.366218287626396,41.28656369961255],[-74.366217815112563,41.286563484959018],[-74.366217690246742,41.286563426908089],[-74.366202038899544,41.286555814807748],[-74.366201583453702,41.286555577203821],[-74.366186622012648,41.286547738298815],[-74.366186442349573,41.286547637047128],[-74.366171581519836,41.286539266232204],[-74.366171338974709,41.286539119754735],[-74.366156938082383,41.286530410083024],[-74.366156779080598,41.286530306131262],[-74.366142706073347,41.286521178626224],[-74.36614406342774,41.28652212296732],[-74.366144561094401,41.286522468573224],[-74.366145393832667,41.286523089583802],[-74.36614635503004,41.286523805095975],[-74.366146693694887,41.286524076450611],[-74.366147962116074,41.286525090317859],[-74.36614808698188,41.286525188194517],[-74.366149189214738,41.286526132535549],[-74.366149753356765,41.286526616518756],[-74.366150381279127,41.286527194328542],[-74.366151353256271,41.286528086018663],[-74.366151544597429,41.286528275696867],[-74.366152666593209,41.286529383390672],[-74.366152884883846,41.286529598044268],[-74.366153748164805,41.286530512684784],[-74.366154347341109,41.286531148545535],[-74.366154794702126,41.286531659529167],[-74.366155736136534,41.286532736847342],[-74.366155807103439,41.286532822573783],[-74.366156770097433,41.286534011943857],[-74.366157053965068,41.286534360249689],[-74.366157694463865,41.286535217514164],[-74.366158292741844,41.286536016052587],[-74.366158583795993,41.286536438609708],[-74.366159435398885,41.286537673880467],[-74.366159456060132,41.286537704255991],[-74.366160232204535,41.286538930751568],[-74.366160542123311,41.286539420809795],[-74.36616099128095,41.286540201797884],[-74.366161547338109,41.286541165714056],[-74.366161712628127,41.286541482969362],[-74.36616238995785,41.28654277831604],[-74.366162472602866,41.286542936268681],[-74.366163014286968,41.286544089862979],[-74.366163315222579,41.286544729098615],[-74.36616360088685,41.286545409509969],[-74.366164076095643,41.286546542853884],[-74.366164147960859,41.286546740632161],[-74.366164642932574,41.286548081879523],[-74.366164751628716,41.28654837618442],[-74.366165090293592,41.286549432576969],[-74.366165344516816,41.286550225715146],[-74.366165497230412,41.286550792724604],[-74.366165850268317,41.286552089421086],[-74.366165865539685,41.286552156247218],[-74.366166174560149,41.286553529894945],[-74.366166271578194,41.286553964602156],[-74.366166439563159,41.28655490759278],[-74.366166605751488,41.286555851258363],[-74.366166662345336,41.286556290690612],[-74.366166843805033,41.286557676488513],[-74.366166852788197,41.286557743989611],[-74.366166964179286,41.286559067011432],[-74.366167013586619,41.286559642795908],[-74.366167044129327,41.286560457534279],[-74.366167085451835,41.286561544977168],[-74.366167083655199,41.286561850757238],[-74.366167072875427,41.286563243305089],[-74.366167071078792,41.286563446483392],[-74.366167008196726,41.286564635852912],[-74.366166968670854,41.286565347989566],[-74.366166903093841,41.286566025025692],[-74.366166780024628,41.286567244770616],[-74.366166755770124,41.286567414198387],[-74.366166553649194,41.286568798646009],[-74.366166503343536,41.286569136151492],[-74.366166302120916,41.286570179043508],[-74.366166141322466,41.286571018082199],[-74.366166011965063,41.286571554715927],[-74.366165692164827,41.286572891237661],[-74.366165682283366,41.286572924313205],[-74.3661652906179,41.286574285135323],[-74.366165156768915,41.286574750217902],[-74.366164856731615,41.286575639207335],[-74.366164537829704,41.2865765943478],[-74.366164385116093,41.28657698517911],[-74.366163869483131,41.286578323725806],[-74.366163832652191,41.286578420927363],[-74.366163297256293,41.286579646747221],[-74.36616304393138,41.28658022793158],[-74.366162687300218,41.286580961668434],[-74.366162174362188,41.286582014010413],[-74.36616203781827,41.28658226511444],[-74.366161341623908,41.286583555060218],[-74.36616122214798,41.286583775788785],[-74.366160596022212,41.286584828805701],[-74.366160189983717,41.286585511241704],[-74.366159812691308,41.286586090401002],[-74.366159078767708,41.286587219694141],[-74.36615899342776,41.286587338496048],[-74.366158122960243,41.286588567015713],[-74.366157889398281,41.286588896420987],[-74.366157212068558,41.286589777985135],[-74.366156624570351,41.286590542097315],[-74.366156265244243,41.28659097342922],[-74.366155283385638,41.286592154698127],[-74.365802357768388,41.287000605816374],[-74.365516399758931,41.286915123605574],[-74.36491414314132,41.286681684691196],[-74.364981153868243,41.286459545996017],[-74.365116786899748,41.286009920204009],[-74.365272215206829,41.285494669745297],[-74.365379195574022,41.2851400216041],[-74.365421746074091,41.284998959960113],[-74.364379484748838,41.284682122996252],[-74.364020808117132,41.285328164523811],[-74.36371049228876,41.285887092006242],[-74.363264455393988,41.28814519696251]]]},"properties":{"OBJECTID":1752099,"PARCEL_ADDR":"18 Beverly Dr","LOC_ST_NBR":"18","LOC_STREET":"Beverly Dr","LOC_ZIP":"10990","PRINT_KEY":"31-1-2","SBL":"03100000010020000000","YR_BLT":1986,"BLDG_STYLE_DESC":"Colonial","FRONT":0,"DEPTH":0,"ACRES":54.600000000000001}},{"type":"Feature","id":1752075,"geometry":{"type":"Polygon","coordinates":[[[-74.368526400951126,41.287415271823861],[-74.368807372412419,41.286762631147354],[-74.368047466852332,41.28649808175323],[-74.368035297375172,41.286509041243136],[-74.368022633824623,41.286519678750643],[-74.368009493268644,41.286529980775782],[-74.367995890978619,41.28653993584345],[-74.367981841327563,41.286549531803637],[-74.367967362281817,41.286558756506295],[-74.367952470011033,41.286567600501421],[-74.367937184278176,41.28657605231399],[-74.367921521252867,41.286584101819024],[-74.367905499799775,41.286591740916506],[-74.367889139681822,41.286598958806373],[-74.367872460661943,41.286605747388698],[-74.367855480706453,41.286612099238532],[-74.367838219578246,41.286618006255729],[-74.367820701531897,41.286623461690461],[-74.367802942737043,41.286628458792663],[-74.367784968346527,41.286632991487338],[-74.367766797224959,41.286637055049582],[-74.367748450033602,41.286640644079327],[-74.367729951925284,41.28664375587659],[-74.367711321764588,41.286646384366463],[-74.368526400951126,41.287415271823861]]]},"properties":{"OBJECTID":1752075,"PARCEL_ADDR":"26 Beverly Dr","LOC_ST_NBR":"26","LOC_STREET":"Beverly Dr","LOC_ZIP":"10990","PRINT_KEY":"90-1-10","SBL":"09000000010100000000","YR_BLT":1984,"BLDG_STYLE_DESC":"Raised ranch","FRONT":0,"DEPTH":0,"ACRES":1.1000000000000001}},{"type":"Feature","id":1752091,"geometry":{"type":"Polygon","coordinates":[[[-74.366122375401829,41.285580735685301],[-74.365272215206829,41.285494669745297],[-74.365116786899748,41.286009920204009],[-74.366032143224786,41.285908603478624],[-74.366122375401829,41.285580735685301]]]},"properties":{"OBJECTID":1752091,"PARCEL_ADDR":"12 Beverly Dr","LOC_ST_NBR":"12","LOC_STREET":"Beverly Dr","LOC_ZIP":"10990","PRINT_KEY":"90-3-6","SBL":"09000000030060000000","YR_BLT":1984,"BLDG_STYLE_DESC":"Raised ranch","FRONT":122,"DEPTH":254,"ACRES":0}},{"type":"Feature","id":1752064,"geometry":{"type":"Polygon","coordinates":[[[-74.369291737725405,41.284189314416892],[-74.369114699545847,41.284494373107805],[-74.369848446164852,41.284736655315413],[-74.370084260215151,41.284328790805759],[-74.369291737725405,41.284189314416892]]]},"properties":{"OBJECTID":1752064,"PARCEL_ADDR":"38 Beverly Dr","LOC_ST_NBR":"38","LOC_STREET":"Beverly Dr","LOC_ZIP":"10990","PRINT_KEY":"90-1-4","SBL":"09000000010040000000","YR_BLT":1985,"BLDG_STYLE_DESC":"Ranch","FRONT":121,"DEPTH":224,"ACRES":0}},{"type":"Feature","id":1752043,"geometry":{"type":"Polygon","coordinates":[[[-74.369518567724541,41.282508123937639],[-74.369284728171252,41.282475098310087],[-74.369356809887961,41.282681299785963],[-74.369105534034986,41.283051411101859],[-74.369700171142384,41.283369801159488],[-74.370012087768586,41.283536810234366],[-74.370102823900496,41.283385445304887],[-74.370444293302938,41.283010228471788],[-74.370234145018628,41.282834851484438],[-74.37013188619656,41.282755410243666],[-74.370007418325756,41.282645116354708],[-74.369942872575962,41.28260495212173],[-74.369872850696183,41.282576182073164],[-74.369793751340481,41.282555609175354],[-74.369518567724541,41.282508123937639]]]},"properties":{"OBJECTID":1752043,"PARCEL_ADDR":"53 West Ridge Rd","LOC_ST_NBR":"53","LOC_STREET":"West Ridge Rd","LOC_ZIP":"10990","PRINT_KEY":"31-1-4","SBL":"03100000010040000000","YR_BLT":1964,"BLDG_STYLE_DESC":"Ranch","FRONT":0,"DEPTH":0,"ACRES":2}},{"type":"Feature","id":1752053,"geometry":{"type":"Polygon","coordinates":[[[-74.367958488723445,41.283324595464777],[-74.367937911913543,41.283945094842672],[-74.368419037901617,41.284076414609295],[-74.368629371238868,41.283637944331076],[-74.368390090589898,41.28357263472391],[-74.368372502474955,41.283567573258665],[-74.368355155108489,41.28356205816479],[-74.368338070050115,41.283556094167345],[-74.368321267961036,41.283549690041788],[-74.368304769502529,41.283542851863459],[-74.368288593539219,41.283535589082689],[-74.368272758935689,41.283527909799936],[-74.368257283658295,41.283519822790566],[-74.368242189266581,41.283511338855092],[-74.368227491031917,41.283502466768965],[-74.368213206022247,41.283493218007735],[-74.368199354000566,41.283483601346802],[-74.368185947543267,41.28347363231196],[-74.368173006413286,41.283463319003602],[-74.368160544085356,41.283452676947569],[-74.368148576729141,41.2834417155943],[-74.368137116022737,41.283430450469567],[-74.368126179034164,41.283418892373994],[-74.368115774746542,41.283407057508427],[-74.368105919329551,41.283394960048703],[-74.368096623562977,41.283382612145395],[-74.368087894633376,41.283370029999446],[-74.368079748710372,41.283357227786659],[-74.368072192082209,41.283344222382979],[-74.368065235528661,41.283331027964259],[-74.367958488723445,41.283324595464777]]]},"properties":{"OBJECTID":1752053,"PARCEL_ADDR":"43 Beverly Dr","LOC_ST_NBR":"43","LOC_STREET":"Beverly Dr","LOC_ZIP":"10990","PRINT_KEY":"90-2-1","SBL":"09000000020010000000","YR_BLT":1983,"BLDG_STYLE_DESC":"Raised ranch","FRONT":199,"DEPTH":170,"ACRES":0}},{"type":"Feature","id":1752059,"geometry":{"type":"Polygon","coordinates":[[[-74.367636622357139,41.284564307110216],[-74.368706101737175,41.284856209089348],[-74.368882042175471,41.284553051629729],[-74.367795166919962,41.284256400098862],[-74.367687193016067,41.284466093966032],[-74.367636622357139,41.284564307110216]]]},"properties":{"OBJECTID":1752059,"PARCEL_ADDR":"37 Beverly Dr","LOC_ST_NBR":"37","LOC_STREET":"Beverly Dr","LOC_ZIP":"10990","PRINT_KEY":"90-2-4","SBL":"09000000020040000000","YR_BLT":1984,"BLDG_STYLE_DESC":"Raised ranch","FRONT":120,"DEPTH":318,"ACRES":0}},{"type":"Feature","id":1752079,"geometry":{"type":"Polygon","coordinates":[[[-74.366410743591189,41.286632595256286],[-74.366615390592699,41.286701515127582],[-74.366635825468776,41.286708088371213],[-74.366656541517543,41.286714139831801],[-74.366677518976047,41.28671966343444],[-74.366698726403285,41.286724651079126],[-74.366720145832915,41.286729099390982],[-74.366741751213823,41.286733000269962],[-74.366763518291464,41.286736351691154],[-74.366785422811361,41.286739151629583],[-74.366807438722347,41.286741391985274],[-74.366829543566539,41.28674307343325],[-74.366851710394485,41.286744192598562],[-74.366873914053372,41.286744750831168],[-74.36689612849203,41.286744745431044],[-74.366918332150902,41.286744176398308],[-74.366940498978863,41.286743045082886],[-74.366958750948811,41.286741687639349],[-74.366976949019815,41.286739948140507],[-74.366995073428981,41.286737827936442],[-74.36733457102936,41.28669448490178],[-74.367711321764588,41.286646384366463],[-74.367729951925284,41.28664375587659],[-74.367748450033602,41.286640644079327],[-74.367766797224959,41.286637055049582],[-74.367784968346527,41.286632991487338],[-74.367802942737043,41.286628458792663],[-74.367820701531897,41.286623461690461],[-74.367838219578246,41.286618006255729],[-74.367855480706453,41.286612099238532],[-74.367872460661943,41.286605747388698],[-74.367889139681822,41.286598958806373],[-74.367905499799775,41.286591740916506],[-74.367921521252867,41.286584101819024],[-74.367937184278176,41.28657605231399],[-74.367952470011033,41.286567600501421],[-74.367967362281817,41.286558756506295],[-74.367981841327563,41.286549531803637],[-74.367995890978619,41.28653993584345],[-74.368009493268644,41.286529980775782],[-74.368022633824623,41.286519678750643],[-74.368035297375172,41.286509041243136],[-74.368047466852332,41.28649808175323],[-74.368058576317452,41.286487363915796],[-74.368069215963672,41.286476376746791],[-74.368079371417963,41.28646513374634],[-74.36808903369716,41.286453645039522],[-74.368098192021492,41.28644192412645],[-74.368106837407765,41.286429983157198],[-74.36811495727963,41.286417834956914],[-74.36812254624715,41.286405491675708],[-74.36812959532719,41.286392968163696],[-74.368136095536585,41.28638027792114],[-74.368142040587117,41.286367431748005],[-74.36827425642727,41.286066048501937],[-74.368496219354199,41.285560055056237],[-74.368707573177616,41.2851958867154],[-74.368910410972134,41.284846388770539],[-74.369114699545847,41.284494373107805],[-74.369291737725405,41.284189314416892],[-74.36931369883915,41.284151473258298],[-74.369321064126183,41.284138162221574],[-74.369327813168908,41.284124666222127],[-74.369333940577462,41.284111002810889],[-74.36933943736868,41.284097188863598],[-74.369344298152697,41.284083237880971],[-74.369348518437889,41.284069171464012],[-74.369352090139458,41.284055001088312],[-74.369355009664119,41.28404074700498],[-74.369357275215279,41.284026424739757],[-74.369358883199624,41.284012051843533],[-74.369359830023939,41.283997645192287],[-74.36936011838317,41.283983224362096],[-74.369359743785694,41.28396880285365],[-74.369358709824795,41.283954400243061],[-74.369357015602162,41.283940033406374],[-74.369354664711068,41.283925719894498],[-74.369351658948133,41.283911475233467],[-74.369348001906616,41.283897317649277],[-74.369343698078083,41.283883263342936],[-74.369338743869292,41.283869304889116],[-74.369333150958326,41.28385548346526],[-74.369326926531727,41.283841815947405],[-74.369320079572631,41.283828319211672],[-74.369312617267553,41.283815010134084],[-74.369304545904726,41.283801903565688],[-74.369295879857191,41.283789015707576],[-74.36928662631145,41.28377636208576],[-74.369276796945613,41.283763958901353],[-74.369266405234413,41.283751818980242],[-74.369255461957607,41.283739957173445],[-74.369243981488268,41.283728388332051],[-74.369231975504491,41.283717127307071],[-74.369219459277659,41.283706186249397],[-74.369206448079083,41.283695578660023],[-74.369192959875079,41.283685316689855],[-74.369179007242096,41.283675415189961],[-74.369164609044716,41.283665882260927],[-74.369149780554309,41.283656732078882],[-74.369134541533839,41.283647974094499],[-74.369118909051267,41.283639620458651],[-74.369102902869528,41.283631679947128],[-74.369086540954953,41.283624161335567],[-74.36906984486707,41.283617075424715],[-74.369055326295452,41.283611368623177],[-74.369040589433212,41.283605989891413],[-74.369025650450041,41.283600939904453],[-74.369010516532455,41.283596226763024],[-74.36899520654508,41.283591854517297],[-74.368451980021405,41.283443586814485],[-74.36844072862246,41.283440356056914],[-74.368429625445557,41.283436845831261],[-74.368418681270455,41.283433060862649],[-74.368407909571872,41.283429006551543],[-74.368397322027931,41.283424682897774],[-74.368386929418421,41.283420098676906],[-74.368376745218043,41.28341525726411],[-74.368366777511653,41.283410165409677],[-74.368357037977347,41.283404827163935],[-74.368347537394897,41.283399247927115],[-74.368338288340723,41.28339343579966],[-74.368329298899667,41.283387394156797],[-74.368320578054906,41.283381133124024],[-74.368321002059702,41.283368385591949],[-74.368187683986719,41.283364377854859],[-74.368167854575134,41.283337210696658],[-74.368065235528661,41.283331027964259],[-74.368072192082209,41.283344222382979],[-74.368079748710372,41.283357227786659],[-74.368087894633376,41.283370029999446],[-74.368096623562977,41.283382612145395],[-74.368105919329551,41.283394960048703],[-74.368115774746542,41.283407057508427],[-74.368126179034164,41.283418892373994],[-74.368137116022737,41.283430450469567],[-74.368148576729141,41.2834417155943],[-74.368160544085356,41.283452676947569],[-74.368173006413286,41.283463319003602],[-74.368185947543267,41.28347363231196],[-74.368199354000566,41.283483601346802],[-74.368213206022247,41.283493218007735],[-74.368227491031917,41.283502466768965],[-74.368242189266581,41.283511338855092],[-74.368257283658295,41.283519822790566],[-74.368272758935689,41.283527909799936],[-74.368288593539219,41.283535589082689],[-74.368304769502529,41.283542851863459],[-74.368321267961036,41.283549690041788],[-74.368338070050115,41.283556094167345],[-74.368355155108489,41.28356205816479],[-74.368372502474955,41.283567573258665],[-74.368390090589898,41.28357263472391],[-74.368629371238868,41.283637944331076],[-74.368933318910209,41.283720902808582],[-74.368945389572673,41.283724377916862],[-74.368957294046822,41.283728168943888],[-74.368969015264653,41.283732268464171],[-74.368980540649744,41.28373667445247],[-74.368991854930741,41.283741378808237],[-74.369002946429561,41.283746378156309],[-74.369013800773132,41.28375166709619],[-74.369024403588426,41.283757236177266],[-74.369034742299036,41.283763079999183],[-74.369044805226849,41.283769191811459],[-74.369054581592096,41.283775565538662],[-74.369064057920028,41.283782191055089],[-74.369073219837603,41.283789062285301],[-74.369082062853266,41.283796169103667],[-74.369090570797312,41.283803504084695],[-74.369098735584927,41.283811057102639],[-74.369106545538003,41.283818821407017],[-74.369113993470023,41.28382678484715],[-74.369121070397853,41.283834939322382],[-74.369127765541649,41.283843274032108],[-74.369134072613278,41.283851781550794],[-74.369139982629534,41.283860447702516],[-74.369145490200523,41.283869263711757],[-74.369150586343139,41.283878220127839],[-74.36915526746408,41.283887304125074],[-74.369159526376833,41.283896505577744],[-74.369163358589844,41.283905813010165],[-74.369166757814881,41.283915216296727],[-74.369169720458686,41.283924703286701],[-74.369172243826327,41.283934260479306],[-74.36917432612114,41.283943879773979],[-74.3691759628516,41.28395354699493],[-74.369177151322702,41.283963252016619],[-74.369177892432816,41.28397298268829],[-74.369178184385291,41.283982726184178],[-74.369178025383476,41.283992471703769],[-74.369177417224037,41.284002206421327],[-74.36917636080527,41.284011920211206],[-74.36917485612716,41.28402159957281],[-74.369172905884682,41.284031234380471],[-74.369170511874444,41.284040811808538],[-74.369167677689717,41.284050321056498],[-74.369164405127137,41.284059748623577],[-74.369160702271543,41.284069085059286],[-74.369156569122936,41.284078320238173],[-74.36915201196949,41.284087439309467],[-74.369147037997763,41.284096434172689],[-74.369057521778018,41.284250680527556],[-74.368882042175471,41.284553051629729],[-74.368706101737175,41.284856209089348],[-74.368530620337992,41.285158574685553],[-74.368355138040513,41.285460939555705],[-74.368325932014002,41.285511263137224],[-74.368214934380859,41.285764288552997],[-74.368035944162187,41.286172275043022],[-74.367968914570639,41.286325068586955],[-74.367964656556182,41.28633423662022],[-74.367959973638605,41.286343289224909],[-74.367954875699382,41.286352212225822],[-74.367949366331715,41.286360994147735],[-74.367943454518851,41.286369626215595],[-74.367937145650615,41.286378097629168],[-74.367930448710155,41.28638639623837],[-74.367923370884029,41.286394514618124],[-74.367915922952008,41.286402440618183],[-74.367908109405676,41.286410165463536],[-74.367899945516371,41.286417680379024],[-74.367891436674,41.286424975914642],[-74.367882595454986,41.286432041270174],[-74.367873431740762,41.286438869695566],[-74.367863958107776,41.286445453090813],[-74.367854185335801,41.286451782680821],[-74.367844124204623,41.286457849690471],[-74.367833789985596,41.286463648044709],[-74.367823192560195,41.28646917234358],[-74.367812345403138,41.286474411786877],[-74.367801261989143,41.286479362999707],[-74.367789956691311,41.286484017881897],[-74.367778442085992,41.286488373058496],[-74.367766731647947,41.28649242177945],[-74.367754841546841,41.286496159319732],[-74.367742786155731,41.286499580954342],[-74.36773058074597,41.286502683983194],[-74.367718236097332,41.286505462331306],[-74.367705771074455,41.286507913298649],[-74.367693201847004,41.286510034860235],[-74.367680540093062,41.286511823641021],[-74.367061318791301,41.286590880952737],[-74.366964317808609,41.286603264699544],[-74.366947953199087,41.286605135154097],[-74.366931514029389,41.286606577651796],[-74.366915018265814,41.286607590167719],[-74.366898485671328,41.286608173376905],[-74.366881936008852,41.286608325254299],[-74.366865389041308,41.286608045124879],[-74.366848867226608,41.28660733433869],[-74.36683238493778,41.286606191545715],[-74.366815964632707,41.286604622820988],[-74.366799627870932,41.28660262478946],[-74.366783390822192,41.286600203526099],[-74.366767276842623,41.286597359030999],[-74.366751300305296,41.286594097379115],[-74.366735482769769,41.286590421270397],[-74.366719844897304,41.286586334079921],[-74.36670440285755,41.286581842557659],[-74.366689174616852,41.286576951428586],[-74.366356900369681,41.286465049369859],[-74.366345444154874,41.286461008747345],[-74.366334180179521,41.286456670444203],[-74.366323123715006,41.286452040535487],[-74.366312285541085,41.286447123071213],[-74.366301682725805,41.286441923451427],[-74.36629132515057,41.286436450451248],[-74.36628122539183,41.286430708795585],[-74.366271396924304,41.286424705234623],[-74.366261851426103,41.286418448543365],[-74.366252598778686,41.286411944796882],[-74.366243651558435,41.28640520344527],[-74.366235020545204,41.286398230563591],[-74.366226714722089,41.286391035601945],[-74.366218747563835,41.286383627335375],[-74.366211125358632,41.286376015889076],[-74.366203858886308,41.28636820801308],[-74.366196956231661,41.286360215857549],[-74.366190425479559,41.28635204617256],[-74.366184275613108,41.286343710433279],[-74.36617851292057,41.286335219439827],[-74.366173145486741,41.286326581967323],[-74.366168179599839,41.286317808140915],[-74.366163620649786,41.286308910785856],[-74.366159473128107,41.2862998986772],[-74.366155744221373,41.286290783290191],[-74.366152438421125,41.286281576100002],[-74.366149557524011,41.286272287906819],[-74.366147107818236,41.286262929510848],[-74.366145088405474,41.286253513062334],[-74.366143505573945,41.286244048011412],[-74.366142359323632,41.286234548533344],[-74.366141651451201,41.286225023403368],[-74.366141382854934,41.286215486121719],[-74.366141554433142,41.286205948163648],[-74.366142163490906,41.286196418979443],[-74.366143213621484,41.286186912744277],[-74.36614469853663,41.286177439583525],[-74.36614662093136,41.286168011647369],[-74.366148975415712,41.286158639736165],[-74.366166296731009,41.2860956992577],[-74.36625665377386,41.285767370016231],[-74.366347000935264,41.285439076248949],[-74.366437355283153,41.28511074842865],[-74.366513873779056,41.284832703234486],[-74.366518283608784,41.284816029341535],[-74.366521920887365,41.284799248789703],[-74.36652477932661,41.284782383179802],[-74.366527023318184,41.284764839160751],[-74.366528514521576,41.284747251935087],[-74.366529249343458,41.284729637028398],[-74.366529228682225,41.284712013341604],[-74.366528450741171,41.284694397750407],[-74.366526918215314,41.28467681253084],[-74.366502457988432,41.284451902750511],[-74.366497141758586,41.28440301482317],[-74.366495483468555,41.284383822945031],[-74.366494683069646,41.284364600009731],[-74.366494740561834,41.284345367618272],[-74.366495653250169,41.284326146696785],[-74.366497423829586,41.284306960871355],[-74.366500046910218,41.284287830393154],[-74.366503521593728,41.284268777538358],[-74.366507845185197,41.284249823233068],[-74.366513007803135,41.284230988403571],[-74.366415952921528,41.284247463985665],[-74.366424232693504,41.284215966843455],[-74.366647035545213,41.283467189025863],[-74.366545955312802,41.283493565654787],[-74.366398370196464,41.283989554190896],[-74.366335470160266,41.284200938529509],[-74.36632906696893,41.284224291378962],[-74.366323708518252,41.284247793402756],[-74.36631939929984,41.284271417599442],[-74.366316144703561,41.284295138992526],[-74.36631395011932,41.28431892855545],[-74.366312818242051,41.28434275928678],[-74.36631274727516,41.284366606885278],[-74.366313739913551,41.284390441649407],[-74.366315795258927,41.284414238602928],[-74.366326073782403,41.284508751973043],[-74.366345573512262,41.284688035588452],[-74.366346705389532,41.284700967146023],[-74.36634729288771,41.284713918951923],[-74.366347332413582,41.284726876830476],[-74.366346826662081,41.284739830656306],[-74.366345772039949,41.284752764903729],[-74.366344173937051,41.284765668097194],[-74.366342029658469,41.284778525386123],[-74.366339344594095,41.284791325969991],[-74.366336120540538,41.28480405432326],[-74.366319374147011,41.284864903458903],[-74.366220231580684,41.285225161877655],[-74.366122375401829,41.285580735685301],[-74.366032143224786,41.285908603478624],[-74.365971214092355,41.286129990732114],[-74.365967881342627,41.286143177159694],[-74.365965120819766,41.286156438511362],[-74.365962934320365,41.286169759261618],[-74.365961325437695,41.286183127935232],[-74.365960294171757,41.286196528331843],[-74.365959843217468,41.28620994762607],[-74.36595997167656,41.286223370292618],[-74.365960680447316,41.286236782156202],[-74.365961969529749,41.286250171066555],[-74.365963837127225,41.286263519473273],[-74.365966278748189,41.286276815901154],[-74.365969294392585,41.286290044825002],[-74.365972880467197,41.286303193419478],[-74.365977314551444,41.2863170723761],[-74.365982384642905,41.28633082712723],[-74.365988084453377,41.286344440122683],[-74.365994406796347,41.28635789651225],[-74.366001344485298,41.286371180770665],[-74.366008885842092,41.286384273322767],[-74.366017027273514,41.286397161343331],[-74.366025754406508,41.28640983065722],[-74.366035059156204,41.28642226168926],[-74.366044929844563,41.286434444314388],[-74.366055354793431,41.286446360307352],[-74.366066320528105,41.286457995493102],[-74.366077814472149,41.286469338396536],[-74.366089823150887,41.286480372142535],[-74.366102332191218,41.286491087281128],[-74.36611532632179,41.286501468287085],[-74.366128789372965,41.286511502335493],[-74.366142706073347,41.286521178626224],[-74.366156779080598,41.286530306131262],[-74.366156938082383,41.286530410083024],[-74.366171338974709,41.286539119754735],[-74.366171581519836,41.286539266232204],[-74.366186442349573,41.286547637047128],[-74.366186622012648,41.286547738298815],[-74.366201583453702,41.286555577203821],[-74.366202038899544,41.286555814807748],[-74.366217690246742,41.286563426908089],[-74.366217815112563,41.286563484959018],[-74.366218287626396,41.28656369961255],[-74.366233690140263,41.286570636025999],[-74.366233929990443,41.286570744027728],[-74.366250119428486,41.286577477262107],[-74.36625036736352,41.286577580538768],[-74.366266917025982,41.286583913491022],[-74.366267106570533,41.286583985717151],[-74.366284128746841,41.286589953487947],[-74.366410743591189,41.286632595256286]]]},"properties":{"OBJECTID":1752079,"PARCEL_ADDR":null,"LOC_ST_NBR":null,"LOC_STREET":null,"LOC_ZIP":null,"PRINT_KEY":null,"SBL":null,"YR_BLT":null,"BLDG_STYLE_DESC":null,"FRONT":null,"DEPTH":null,"ACRES":null}},{"type":"Feature","id":1752050,"geometry":{"type":"Polygon","coordinates":[[[-74.365701785982424,41.283036659289237],[-74.365217717113495,41.283016844615247],[-74.365047487265471,41.283324114157985],[-74.365701785982424,41.283036659289237]]]},"properties":{"OBJECTID":1752050,"PARCEL_ADDR":"West Ridge Rd","LOC_ST_NBR":null,"LOC_STREET":"West Ridge Rd","LOC_ZIP":"10990","PRINT_KEY":"31-1-9","SBL":"03100000010090000000","YR_BLT":null,"BLDG_STYLE_DESC":null,"FRONT":215,"DEPTH":135,"ACRES":0}},{"type":"Feature","id":1752067,"geometry":{"type":"Polygon","coordinates":[[[-74.369920559322622,41.283903312667277],[-74.370259022962102,41.284026517219822],[-74.370682992741905,41.283350250528976],[-74.370444293302938,41.283010228471788],[-74.370102823900496,41.283385445304887],[-74.370012087768586,41.283536810234366],[-74.369804615565528,41.283861107215657],[-74.369920559322622,41.283903312667277]]]},"properties":{"OBJECTID":1752067,"PARCEL_ADDR":"49 West Ridge Rd","LOC_ST_NBR":"49","LOC_STREET":"West Ridge Rd","LOC_ZIP":"10990","PRINT_KEY":"31-1-3.1","SBL":"03100000010031000000","YR_BLT":1930,"BLDG_STYLE_DESC":"Old style","FRONT":0,"DEPTH":0,"ACRES":1}},{"type":"Feature","id":1752068,"geometry":{"type":"Polygon","coordinates":[[[-74.369920559322622,41.283903312667277],[-74.369343698078083,41.283883263342936],[-74.369348001906616,41.283897317649277],[-74.369351658948133,41.283911475233467],[-74.369354664711068,41.283925719894498],[-74.369357015602162,41.283940033406374],[-74.369358709824795,41.283954400243061],[-74.369359743785694,41.28396880285365],[-74.36936011838317,41.283983224362096],[-74.369359830023939,41.283997645192287],[-74.369358883199624,41.284012051843533],[-74.369357275215279,41.284026424739757],[-74.369355009664119,41.28404074700498],[-74.369352090139458,41.284055001088312],[-74.369348518437889,41.284069171464012],[-74.369344298152697,41.284083237880971],[-74.36933943736868,41.284097188863598],[-74.369333940577462,41.284111002810889],[-74.369327813168908,41.284124666222127],[-74.369321064126183,41.284138162221574],[-74.36931369883915,41.284151473258298],[-74.369291737725405,41.284189314416892],[-74.370084260215151,41.284328790805759],[-74.370259022962102,41.284026517219822],[-74.369920559322622,41.283903312667277]]]},"properties":{"OBJECTID":1752068,"PARCEL_ADDR":"40 Beverly Dr","LOC_ST_NBR":"40","LOC_STREET":"Beverly Dr","LOC_ZIP":"10990","PRINT_KEY":"90-1-3","SBL":"09000000010030000000","YR_BLT":1985,"BLDG_STYLE_DESC":"Colonial","FRONT":115,"DEPTH":224,"ACRES":0}},{"type":"Feature","id":1752042,"geometry":{"type":"Polygon","coordinates":[[[-74.37031452716856,41.281826284417022],[-74.369391351907268,41.281432051515488],[-74.368959819211071,41.282237225271146],[-74.36977571316956,41.282389037724727],[-74.369787626626874,41.282390283874847],[-74.369799589491492,41.282391220850151],[-74.369811588288741,41.282391847975539],[-74.369823607747264,41.28239216390088],[-74.369835635290599,41.282392169301353],[-74.369847655647419,41.282391862151663],[-74.369859656241289,41.282391245152105],[-74.369871619105922,41.282390318977654],[-74.369883535258182,41.282389082953323],[-74.369895387630038,41.282387539104242],[-74.36990716184846,41.282385688780465],[-74.369918844438729,41.28238353603227],[-74.369930425519371,41.282381082209788],[-74.369941885327464,41.282378330013174],[-74.369953213981503,41.282375282142631],[-74.369964398006786,41.282371943998562],[-74.369975423030269,41.282368318281087],[-74.36998627647553,41.282364409715548],[-74.369996945766161,41.28236022235231],[-74.370007418325756,41.282355760916573],[-74.370017682476174,41.28235103148387],[-74.370027726539377,41.282346039454531],[-74.370037535243952,41.282340790228965],[-74.37004710230174,41.282335291232691],[-74.370056411543032,41.28232954651596],[-74.370065453984679,41.282323565529502],[-74.370074220643545,41.282317353673712],[-74.370082698943193,41.282310918374094],[-74.370090879002163,41.282304267731227],[-74.370098752735629,41.282297409170681],[-74.370106310262116,41.282290350118025],[-74.370113540801839,41.282283100698997],[-74.370120438964904,41.282275668339146],[-74.370126993073214,41.28226806248918],[-74.370133199533498,41.282260291249671],[-74.370139048464324,41.282252362721323],[-74.370144532679134,41.282244288379907],[-74.37031452716856,41.281826284417022]]]},"properties":{"OBJECTID":1752042,"PARCEL_ADDR":"122 Sleepy Valley Rd","LOC_ST_NBR":"122","LOC_STREET":"Sleepy Valley Rd","LOC_ZIP":"10990","PRINT_KEY":"31-1-3.21","SBL":"03100000010032100000","YR_BLT":1996,"BLDG_STYLE_DESC":"Contemporary","FRONT":0,"DEPTH":0,"ACRES":2}},{"type":"Feature","id":1752055,"geometry":{"type":"Polygon","coordinates":[[[-74.368419037901617,41.284076414609295],[-74.369057521778018,41.284250680527556],[-74.369147037997763,41.284096434172689],[-74.36915201196949,41.284087439309467],[-74.369156569122936,41.284078320238173],[-74.369160702271543,41.284069085059286],[-74.369164405127137,41.284059748623577],[-74.369167677689717,41.284050321056498],[-74.369170511874444,41.284040811808538],[-74.369172905884682,41.284031234380471],[-74.36917485612716,41.28402159957281],[-74.36917636080527,41.284011920211206],[-74.369177417224037,41.284002206421327],[-74.369178025383476,41.283992471703769],[-74.369178184385291,41.283982726184178],[-74.369177892432816,41.28397298268829],[-74.369177151322702,41.283963252016619],[-74.3691759628516,41.28395354699493],[-74.36917432612114,41.283943879773979],[-74.369172243826327,41.283934260479306],[-74.369169720458686,41.283924703286701],[-74.369166757814881,41.283915216296727],[-74.369163358589844,41.283905813010165],[-74.369159526376833,41.283896505577744],[-74.36915526746408,41.283887304125074],[-74.369150586343139,41.283878220127839],[-74.369145490200523,41.283869263711757],[-74.369139982629534,41.283860447702516],[-74.369134072613278,41.283851781550794],[-74.369127765541649,41.283843274032108],[-74.369121070397853,41.283834939322382],[-74.369113993470023,41.28382678484715],[-74.369106545538003,41.283818821407017],[-74.369098735584927,41.283811057102639],[-74.369090570797312,41.283803504084695],[-74.369082062853266,41.283796169103667],[-74.369073219837603,41.283789062285301],[-74.369064057920028,41.283782191055089],[-74.369054581592096,41.283775565538662],[-74.369044805226849,41.283769191811459],[-74.369034742299036,41.283763079999183],[-74.369024403588426,41.283757236177266],[-74.369013800773132,41.28375166709619],[-74.369002946429561,41.283746378156309],[-74.368991854930741,41.283741378808237],[-74.368980540649744,41.28373667445247],[-74.368969015264653,41.283732268464171],[-74.368957294046822,41.283728168943888],[-74.368945389572673,41.283724377916862],[-74.368933318910209,41.283720902808582],[-74.368629371238868,41.283637944331076],[-74.368419037901617,41.284076414609295]]]},"properties":{"OBJECTID":1752055,"PARCEL_ADDR":"41 Beverly Dr","LOC_ST_NBR":"41","LOC_STREET":"Beverly Dr","LOC_ZIP":"10990","PRINT_KEY":"90-2-2","SBL":"09000000020020000000","YR_BLT":1984,"BLDG_STYLE_DESC":"Raised ranch","FRONT":317,"DEPTH":187,"ACRES":0}},{"type":"Feature","id":1752060,"geometry":{"type":"Polygon","coordinates":[[[-74.367687193016067,41.284466093966032],[-74.366502457988432,41.284451902750511],[-74.366526918215314,41.28467681253084],[-74.366528450741171,41.284694397750407],[-74.366529228682225,41.284712013341604],[-74.366529249343458,41.284729637028398],[-74.366528514521576,41.284747251935087],[-74.366527023318184,41.284764839160751],[-74.36652477932661,41.284782383179802],[-74.36755760654475,41.284794754444263],[-74.367636622357139,41.284564307110216],[-74.367687193016067,41.284466093966032]]]},"properties":{"OBJECTID":1752060,"PARCEL_ADDR":"7 Beverly Dr","LOC_ST_NBR":"7","LOC_STREET":"Beverly Dr","LOC_ZIP":"10990","PRINT_KEY":"90-2-15","SBL":"09000000020150000000","YR_BLT":1984,"BLDG_STYLE_DESC":"Cape cod","FRONT":120,"DEPTH":326,"ACRES":0}},{"type":"Feature","id":1752089,"geometry":{"type":"Polygon","coordinates":[[[-74.366319374147011,41.284864903458903],[-74.366336120540538,41.28480405432326],[-74.366339344594095,41.284791325969991],[-74.366342029658469,41.284778525386123],[-74.366344173937051,41.284765668097194],[-74.366345772039949,41.284752764903729],[-74.366346826662081,41.284739830656306],[-74.366347332413582,41.284726876830476],[-74.36634729288771,41.284713918951923],[-74.366346705389532,41.284700967146023],[-74.366345573512262,41.284688035588452],[-74.366326073782403,41.284508751973043],[-74.365570470254212,41.284431790816626],[-74.365472855722174,41.284804050948111],[-74.366319374147011,41.284864903458903]]]},"properties":{"OBJECTID":1752089,"PARCEL_ADDR":"6 Beverly Dr","LOC_ST_NBR":"6","LOC_STREET":"Beverly Dr","LOC_ZIP":"10990","PRINT_KEY":"90-3-3","SBL":"09000000030030000000","YR_BLT":1984,"BLDG_STYLE_DESC":"Cape cod","FRONT":131,"DEPTH":234,"ACRES":0}},{"type":"Feature","id":1752083,"geometry":{"type":"Polygon","coordinates":[[[-74.367303192876506,41.285536724285542],[-74.367220145425108,41.285778912845416],[-74.367185555795103,41.285955753458353],[-74.368035944162187,41.286172275043022],[-74.368214934380859,41.285764288552997],[-74.367303192876506,41.285536724285542]]]},"properties":{"OBJECTID":1752083,"PARCEL_ADDR":"29 Beverly Dr","LOC_ST_NBR":"29","LOC_STREET":"Beverly Dr","LOC_ZIP":"10990","PRINT_KEY":"90-2-8","SBL":"09000000020080000000","YR_BLT":1984,"BLDG_STYLE_DESC":"Raised ranch","FRONT":157,"DEPTH":264,"ACRES":0}},{"type":"Feature","id":1752078,"geometry":{"type":"Polygon","coordinates":[[[-74.365972880467197,41.286303193419478],[-74.365969294392585,41.286290044825002],[-74.365966278748189,41.286276815901154],[-74.365963837127225,41.286263519473273],[-74.365961969529749,41.286250171066555],[-74.365960680447316,41.286236782156202],[-74.36595997167656,41.286223370292618],[-74.365959843217468,41.28620994762607],[-74.365960294171757,41.286196528331843],[-74.365961325437695,41.286183127935232],[-74.365962934320365,41.286169759261618],[-74.365965120819766,41.286156438511362],[-74.365967881342627,41.286143177159694],[-74.365971214092355,41.286129990732114],[-74.366032143224786,41.285908603478624],[-74.365116786899748,41.286009920204009],[-74.364981153868243,41.286459545996017],[-74.365972880467197,41.286303193419478]]]},"properties":{"OBJECTID":1752078,"PARCEL_ADDR":"14 Beverly Dr","LOC_ST_NBR":"14","LOC_STREET":"Beverly Dr","LOC_ZIP":"10990","PRINT_KEY":"90-3-7","SBL":"09000000030070000000","YR_BLT":1984,"BLDG_STYLE_DESC":"Raised ranch","FRONT":146,"DEPTH":278,"ACRES":0}},{"type":"Feature","id":1752062,"geometry":{"type":"Polygon","coordinates":[[[-74.368910410972134,41.284846388770539],[-74.368707573177616,41.2851958867154],[-74.369442603489162,41.285438590907596],[-74.369644798988261,41.285088880954426],[-74.368910410972134,41.284846388770539]]]},"properties":{"OBJECTID":1752062,"PARCEL_ADDR":"34 Beverly Dr","LOC_ST_NBR":"34","LOC_STREET":"Beverly Dr","LOC_ZIP":"10990","PRINT_KEY":"90-1-6","SBL":"09000000010060000000","YR_BLT":1985,"BLDG_STYLE_DESC":"Colonial","FRONT":139,"DEPTH":220,"ACRES":0}},{"type":"Feature","id":1752054,"geometry":{"type":"Polygon","coordinates":[[[-74.367936444964684,41.283989346279284],[-74.366513007803135,41.284230988403571],[-74.366507845185197,41.284249823233068],[-74.366503521593728,41.284268777538358],[-74.366500046910218,41.284287830393154],[-74.366497423829586,41.284306960871355],[-74.366495653250169,41.284326146696785],[-74.366494740561834,41.284345367618272],[-74.366494683069646,41.284364600009731],[-74.366495483468555,41.284383822945031],[-74.366497141758586,41.28440301482317],[-74.366502457988432,41.284451902750511],[-74.367687193016067,41.284466093966032],[-74.367795166919962,41.284256400098862],[-74.367936444964684,41.283989346279284]]]},"properties":{"OBJECTID":1752054,"PARCEL_ADDR":"5 Beverly Dr","LOC_ST_NBR":"5","LOC_STREET":"Beverly Dr","LOC_ZIP":"10990","PRINT_KEY":"90-2-16","SBL":"09000000020160000000","YR_BLT":1984,"BLDG_STYLE_DESC":"Raised ranch","FRONT":0,"DEPTH":0,"ACRES":1}},{"type":"Feature","id":1752113,"geometry":{"type":"MultiPolygon","coordinates":[[[[-74.366481203848821,41.292659605873851],[-74.368564193973441,41.294010564438061],[-74.368870145786161,41.294196773746009],[-74.372947517114099,41.290072397873431],[-74.373403637597903,41.290289377603017],[-74.374224794785647,41.287583318145721],[-74.37438982248986,41.287029375264261],[-74.373726789453386,41.286922483886265],[-74.373015081203235,41.286807740634174],[-74.373335819285543,41.285675899435411],[-74.372290789352576,41.285255319958999],[-74.372257089054699,41.285237273848644],[-74.372224232274874,41.285218363026303],[-74.372192258538959,41.285198610442102],[-74.372161206474544,41.285178037696006],[-74.372131111115877,41.285156672463344],[-74.37210200929394,41.285134537694226],[-74.372073935144698,41.28511165971392],[-74.372046922804088,41.28508806619763],[-74.37202100281489,41.285063784145706],[-74.371996206618093,41.285038843258512],[-74.371972563858137,41.285013273911574],[-74.37152472134963,41.284458337164004],[-74.370682992741905,41.283350250528976],[-74.370259022962102,41.284026517219822],[-74.370084260215151,41.284328790805759],[-74.369848446164852,41.284736655315413],[-74.369644798988261,41.285088880954426],[-74.369442603489162,41.285438590907596],[-74.369231917114007,41.285802981325247],[-74.369187235810102,41.285880258797953],[-74.369026435577609,41.28625377901794],[-74.368807372412419,41.286762631147354],[-74.368526400951126,41.287415271823861],[-74.368268938400789,41.288013299487673],[-74.367711180729088,41.287764882909052],[-74.367398487958468,41.287625614339866],[-74.366481203848821,41.292659605873851]]],[[[-74.372527821518403,41.284011476036582],[-74.371645810656688,41.284396194285058],[-74.372092504219935,41.284949728178425],[-74.372104405100799,41.284963935486367],[-74.372116926717553,41.284977834978612],[-74.372130057392056,41.284991411129852],[-74.372143779158009,41.285004650439674],[-74.372158080337343,41.285017535357596],[-74.372172942963715,41.28503005575844],[-74.372188351765786,41.285042193416693],[-74.37220428787893,41.285053936182031],[-74.372220736031778,41.285065273254304],[-74.372237674664788,41.285076189108111],[-74.372255086709941,41.285086672268214],[-74.372272953302627,41.285096711934393],[-74.372291254679908,41.285106297306413],[-74.372309967485592,41.285115414883961],[-74.372329075549999,41.285124057241966],[-74.372348554618625,41.285132214930229],[-74.37339414510032,41.285553019307279],[-74.373726966421486,41.285693823920838],[-74.373865145278501,41.285728012328455],[-74.374112815293913,41.285759936703158],[-74.37467080652759,41.285789843430258],[-74.374695154465059,41.285713885514284],[-74.375353365345077,41.283660422528712],[-74.37549252336575,41.283225028338386],[-74.375731983677767,41.282475809141289],[-74.375738308715682,41.282456021299147],[-74.375855113058805,41.282064398599339],[-74.375969988719035,41.28167923928968],[-74.373617836385833,41.281960526051179],[-74.371484434604085,41.282147057326874],[-74.371285630245197,41.282597929555166],[-74.371094017798484,41.28279196624139],[-74.371474487558956,41.283288286156768],[-74.371700353665787,41.283582922363365],[-74.371926221569254,41.283877557914728],[-74.37230012823828,41.283714464947202],[-74.372527821518403,41.284011476036582]]]]},"properties":{"OBJECTID":1752113,"PARCEL_ADDR":"37 West Ridge Rd","LOC_ST_NBR":"37","LOC_STREET":"West Ridge Rd","LOC_ZIP":"10990","PRINT_KEY":"31-1-22.2","SBL":"03100000010222000000","YR_BLT":1865,"BLDG_STYLE_DESC":"Old style","FRONT":0,"DEPTH":0,"ACRES":134.90000000000001}},{"type":"Feature","id":1752092,"geometry":{"type":"Polygon","coordinates":[[[-74.365472855722174,41.284804050948111],[-74.365421746074091,41.284998959960113],[-74.365379195574022,41.2851400216041],[-74.366220231580684,41.285225161877655],[-74.366319374147011,41.284864903458903],[-74.365472855722174,41.284804050948111]]]},"properties":{"OBJECTID":1752092,"PARCEL_ADDR":"8 Beverly Dr","LOC_ST_NBR":"8","LOC_STREET":"Beverly Dr","LOC_ZIP":"10990","PRINT_KEY":"90-3-4","SBL":"09000000030040000000","YR_BLT":1985,"BLDG_STYLE_DESC":"Raised ranch","FRONT":134,"DEPTH":234,"ACRES":0}},{"type":"Feature","id":1752095,"geometry":{"type":"Polygon","coordinates":[[[-74.365047487265471,41.283324114157985],[-74.365217717113495,41.283016844615247],[-74.363590689369218,41.282442200251012],[-74.363585038966079,41.282447327283705],[-74.36357915859422,41.282452304454118],[-74.363573050050292,41.282457123661608],[-74.363566723215754,41.28246178085594],[-74.36356018707373,41.282466269286523],[-74.363553449709102,41.282470583553028],[-74.363546517410057,41.282474719605169],[-74.363539399159762,41.2824786713675],[-74.363532102144703,41.282482434114613],[-74.363524636246368,41.282486005146481],[-74.363517012244557,41.282489377712402],[-74.363509236427447,41.282492547762288],[-74.363501319574866,41.282495512595816],[-74.36349327066992,41.282498269512843],[-74.363485102289019,41.282500813788054],[-74.363476819822097,41.282503142721197],[-74.363468434947237,41.282505253612108],[-74.363459958444224,41.282507142410559],[-74.363451401092831,41.282508810466567],[-74.363442770079587,41.28251025170475],[-74.363434078879195,41.282511466125079],[-74.363425339169808,41.282512453727627],[-74.363416557239574,41.282513210461985],[-74.363407745664972,41.282513739028467],[-74.363398915225716,41.282514034701691],[-74.363390076701648,41.282514100181821],[-74.363381240872513,41.282513933443738],[-74.363372418518097,41.282513535837552],[-74.36336926722808,41.282513304969399],[-74.363366107853238,41.28251315780787],[-74.363362942190165,41.28251309232774],[-74.363359778323741,41.282513111229235],[-74.363356614457317,41.282513211812116],[-74.363353457777393,41.282513396101578],[-74.363350313673905,41.282513664097621],[-74.363347182146825,41.28251401309997],[-74.363344067687748,41.282514443783768],[-74.363340976584837,41.282514956148987],[-74.363337910634783,41.282515550195576],[-74.363334873430787,41.28251622457347],[-74.363331869464503,41.282516976582443],[-74.36332890053248,41.282517808247647],[-74.363325974719601,41.282518716868871],[-74.36332309112754,41.282519702446109],[-74.363320254247867,41.282520762279198],[-74.363317467673852,41.282521896368038],[-74.363314736795388,41.282523102687534],[-74.363312062510801,41.282524379887541],[-74.363309448413304,41.282525727293013],[-74.363306898994537,41.282527140853688],[-74.363304415152783,41.282528622594604],[-74.363302000481298,41.28253016644036],[-74.363299660369989,41.282531774416114],[-74.363297393920519,41.282533441796474],[-74.363295207421118,41.28253516790636],[-74.363293101770097,41.282536951395706],[-74.363291077865753,41.282538787539096],[-74.363289140199683,41.282540677011603],[-74.362840790143068,41.282994003020086],[-74.363673431393394,41.283486329195256],[-74.363872972370828,41.283779296484148],[-74.365047487265471,41.283324114157985]]]},"properties":{"OBJECTID":1752095,"PARCEL_ADDR":"48 Cornfield Ln","LOC_ST_NBR":"48","LOC_STREET":"Cornfield Ln","LOC_ZIP":"10990","PRINT_KEY":"31-2-135","SBL":"03100000021350000000","YR_BLT":1997,"BLDG_STYLE_DESC":"Colonial","FRONT":0,"DEPTH":0,"ACRES":3.8999999999999999}},{"type":"Feature","id":1752085,"geometry":{"type":"Polygon","coordinates":[[[-74.367303192876506,41.285536724285542],[-74.367332625278479,41.285450884420044],[-74.366347000935264,41.285439076248949],[-74.36625665377386,41.285767370016231],[-74.367220145425108,41.285778912845416],[-74.367303192876506,41.285536724285542]]]},"properties":{"OBJECTID":1752085,"PARCEL_ADDR":"13 Beverly Dr","LOC_ST_NBR":"13","LOC_STREET":"Beverly Dr","LOC_ZIP":"10990","PRINT_KEY":"90-2-12","SBL":"09000000020120000000","YR_BLT":1984,"BLDG_STYLE_DESC":"Raised ranch","FRONT":122,"DEPTH":271,"ACRES":0}},{"type":"Feature","id":1752081,"geometry":{"type":"Polygon","coordinates":[[[-74.367061318791301,41.286590880952737],[-74.367155861983377,41.28610755591113],[-74.366166296731009,41.2860956992577],[-74.366148975415712,41.286158639736165],[-74.36614662093136,41.286168011647369],[-74.36614469853663,41.286177439583525],[-74.366143213621484,41.286186912744277],[-74.366142163490906,41.286196418979443],[-74.366141554433142,41.286205948163648],[-74.366141382854934,41.286215486121719],[-74.366141651451201,41.286225023403368],[-74.366142359323632,41.286234548533344],[-74.366143505573945,41.286244048011412],[-74.366145088405474,41.286253513062334],[-74.366147107818236,41.286262929510848],[-74.366149557524011,41.286272287906819],[-74.366152438421125,41.286281576100002],[-74.366155744221373,41.286290783290191],[-74.366159473128107,41.2862998986772],[-74.366163620649786,41.286308910785856],[-74.366168179599839,41.286317808140915],[-74.366173145486741,41.286326581967323],[-74.36617851292057,41.286335219439827],[-74.366184275613108,41.286343710433279],[-74.366190425479559,41.28635204617256],[-74.366196956231661,41.286360215857549],[-74.366203858886308,41.28636820801308],[-74.366211125358632,41.286376015889076],[-74.366218747563835,41.286383627335375],[-74.366226714722089,41.286391035601945],[-74.366235020545204,41.286398230563591],[-74.366243651558435,41.28640520344527],[-74.366252598778686,41.286411944796882],[-74.366261851426103,41.286418448543365],[-74.366271396924304,41.286424705234623],[-74.36628122539183,41.286430708795585],[-74.36629132515057,41.286436450451248],[-74.366301682725805,41.286441923451427],[-74.366312285541085,41.286447123071213],[-74.366323123715006,41.286452040535487],[-74.366334180179521,41.286456670444203],[-74.366345444154874,41.286461008747345],[-74.366356900369681,41.286465049369859],[-74.366689174616852,41.286576951428586],[-74.36670440285755,41.286581842557659],[-74.366719844897304,41.286586334079921],[-74.366735482769769,41.286590421270397],[-74.366751300305296,41.286594097379115],[-74.366767276842623,41.286597359030999],[-74.366783390822192,41.286600203526099],[-74.366799627870932,41.28660262478946],[-74.366815964632707,41.286604622820988],[-74.36683238493778,41.286606191545715],[-74.366848867226608,41.28660733433869],[-74.366865389041308,41.286608045124879],[-74.366881936008852,41.286608325254299],[-74.366898485671328,41.286608173376905],[-74.366915018265814,41.286607590167719],[-74.366931514029389,41.286606577651796],[-74.366947953199087,41.286605135154097],[-74.366964317808609,41.286603264699544],[-74.367061318791301,41.286590880952737]]]},"properties":{"OBJECTID":1752081,"PARCEL_ADDR":"17 Beverly Dr","LOC_ST_NBR":"17","LOC_STREET":"Beverly Dr","LOC_ZIP":"10990","PRINT_KEY":"90-2-10","SBL":"09000000020100000000","YR_BLT":1984,"BLDG_STYLE_DESC":"Split level","FRONT":363,"DEPTH":272,"ACRES":0}},{"type":"Feature","id":1752044,"geometry":{"type":"Polygon","coordinates":[[[-74.369356809887961,41.282681299785963],[-74.369284728171252,41.282475098310087],[-74.368627887222019,41.282395563473877],[-74.368509773135216,41.282402218832807],[-74.36843656313448,41.282417942191501],[-74.368270543690201,41.282471469223111],[-74.368321002059702,41.283368385591949],[-74.368917389085269,41.283386316111581],[-74.369105534034986,41.283051411101859],[-74.369356809887961,41.282681299785963]]]},"properties":{"OBJECTID":1752044,"PARCEL_ADDR":"59 West Ridge Rd","LOC_ST_NBR":"59","LOC_STREET":"West Ridge Rd","LOC_ZIP":"10990","PRINT_KEY":"31-1-5","SBL":"03100000010050000000","YR_BLT":2004,"BLDG_STYLE_DESC":"Colonial","FRONT":0,"DEPTH":0,"ACRES":1.8}},{"type":"Feature","id":1752048,"geometry":{"type":"Polygon","coordinates":[[[-74.365524550173504,41.282384588441943],[-74.366111018001689,41.28292199628526],[-74.366523286326625,41.282829247222068],[-74.366443295842146,41.282134590377431],[-74.366965847639534,41.281993786184387],[-74.367077452533806,41.282687887610635],[-74.367357724207523,41.282618507840048],[-74.367634976643529,41.282542539481931],[-74.367908939448995,41.282460056769246],[-74.368179341332663,41.282371142708918],[-74.368445919088188,41.282275883006747],[-74.368474656194124,41.28226753999617],[-74.368503749032911,41.282259928744828],[-74.368533162570259,41.28225305667852],[-74.36856286446681,41.282246930548091],[-74.368592822383221,41.282241559804476],[-74.368623002183512,41.282236947148171],[-74.368653368833378,41.282233100004881],[-74.368683889993477,41.282230021750038],[-74.368714528832854,41.282227717109116],[-74.368745253910532,41.282226188107444],[-74.368776030192151,41.282225436095111],[-74.368806822643464,41.282225461072201],[-74.368837597128476,41.282226263713724],[-74.368868317714544,41.282227844694681],[-74.368898951164041,41.282230199289728],[-74.368929463341004,41.282233327498695],[-74.368959819211071,41.282237225271146],[-74.369391351907268,41.281432051515488],[-74.368771967112124,41.281242447320423],[-74.368950345578085,41.280913540102453],[-74.369145991460456,41.280552786679166],[-74.369787685915682,41.280741362043976],[-74.370057559589952,41.280219309091684],[-74.37028847153374,41.280099905465981],[-74.369872552455504,41.279652350212153],[-74.368943757333795,41.280083746123438],[-74.36842684336311,41.279609486505649],[-74.367970393197581,41.279381438341069],[-74.367517762668655,41.279164917851801],[-74.367116027988743,41.279363813209919],[-74.366714869128941,41.280104294822593],[-74.366048313798231,41.281381244142025],[-74.365524550173504,41.282384588441943]]]},"properties":{"OBJECTID":1752048,"PARCEL_ADDR":"62 West Ridge Rd","LOC_ST_NBR":"62","LOC_STREET":"West Ridge Rd","LOC_ZIP":"10990","PRINT_KEY":"31-1-28","SBL":"03100000010280000000","YR_BLT":1986,"BLDG_STYLE_DESC":"Ranch","FRONT":0,"DEPTH":0,"ACRES":20.800000000000001}},{"type":"Feature","id":1751760,"geometry":{"type":"Polygon","coordinates":[[[-74.363870698734843,41.281837942703525],[-74.363544306656138,41.282167967206668],[-74.363551339566513,41.282172071550349],[-74.363558178440755,41.282176358158985],[-74.363564816990703,41.282180822307204],[-74.363571242639921,41.282185457919383],[-74.363577449998559,41.282190260270184],[-74.363583431880031,41.282195223284042],[-74.363589181097851,41.282200341560412],[-74.363594688668854,41.282205606323565],[-74.363599950101474,41.282211014198211],[-74.363604956412544,41.282216556408564],[-74.363609705805445,41.282222227554108],[-74.363614188398714,41.28222802088429],[-74.363618400599094,41.282233927623352],[-74.36362233791499,41.282239942370829],[-74.363625992261561,41.282246056350907],[-74.363629362740511,41.282252264163183],[-74.363632443961933,41.282258556356794],[-74.36363523233257,41.282264925506119],[-74.363637724259178,41.282271363510539],[-74.363639916148458,41.282277864969451],[-74.363641805305505,41.28228441975714],[-74.363643391730292,41.282291019097812],[-74.363644670032954,41.282297656240893],[-74.363645641111773,41.282304324435863],[-74.363646304068453,41.282311012881799],[-74.363646656208047,41.282317714828118],[-74.363646698428866,41.2823244228493],[-74.363646429832599,41.282331126819393],[-74.363645850419232,41.282337820663003],[-74.363644962883725,41.282344494929362],[-74.363643766327769,41.282351140842714],[-74.363642263446295,41.282357753002692],[-74.363640454239317,41.282364319258278],[-74.363638343198403,41.282370834884112],[-74.363635933018486,41.282377291779575],[-74.363633224597919,41.282383680493922],[-74.363630222428228,41.282389993601534],[-74.363626929204401,41.282396225027021],[-74.363623351214628,41.282402364644497],[-74.36361948935722,41.282408407053623],[-74.36361535171703,41.2824143441538],[-74.363610940090666,41.28242016851943],[-74.363606263461293,41.282425873399994],[-74.363601324523842,41.282431451369959],[-74.363596131363195,41.28243689567875],[-74.363590689369218,41.282442200251012],[-74.365217717113495,41.283016844615247],[-74.365524550173504,41.282384588441943],[-74.366048313798231,41.281381244142025],[-74.363870698734843,41.281837942703525]]]},"properties":{"OBJECTID":1751760,"PARCEL_ADDR":"50 Cornfield Ln","LOC_ST_NBR":"50","LOC_STREET":"Cornfield Ln","LOC_ZIP":"10990","PRINT_KEY":"31-2-134","SBL":"03100000021340000000","YR_BLT":1999,"BLDG_STYLE_DESC":"Colonial","FRONT":0,"DEPTH":0,"ACRES":5.2999999999999998}},{"type":"Feature","id":1752086,"geometry":{"type":"Polygon","coordinates":[[[-74.367220145425108,41.285778912845416],[-74.36625665377386,41.285767370016231],[-74.366166296731009,41.2860956992577],[-74.367155861983377,41.28610755591113],[-74.367185555795103,41.285955753458353],[-74.367220145425108,41.285778912845416]]]},"properties":{"OBJECTID":1752086,"PARCEL_ADDR":"15 Beverly Dr","LOC_ST_NBR":"15","LOC_STREET":"Beverly Dr","LOC_ZIP":"10990","PRINT_KEY":"90-2-11","SBL":"09000000020110000000","YR_BLT":1984,"BLDG_STYLE_DESC":"Split level","FRONT":122,"DEPTH":272,"ACRES":0}}]}